School,City,Public or Private,Zip Code,Mental Health Services(Y/N),Student Enrollment,State Wide Assessment Results - 2023 : ELA (English Language Arts) : ALL ENROLLED - Minimally Proficient(%),State Wide Assessment Results - 2023 : ELA (English Language Arts) : ALL ENROLLED - Partially Proficient(%),State Wide Assessment Results - 2023 : ELA (English Language Arts) : ALL ENROLLED - Proficient(%),State Wide Assessment Results - 2023 : ELA (English Language Arts) : ALL ENROLLED - Highly Proficient(%),State Wide Assessment Results - 2023 All:MATH : ALL ENROLLED - Minimally Proficient(%),State Wide Assessment Results - 2023 All:MATH : ALL ENROLLED - Partially Proficient(%),State Wide Assessment Results - 2023 All:MATH : ALL ENROLLED - Proficient(%),State Wide Assessment Results - 2023 All:MATH : ALL ENROLLED - Highly Proficient(%),Graduation Rate: 2023 (Cohort 2022) (%),Dropout Rate: 2023 (%),End of Year Promotion (%),College or Career Readiness (CCRI) Points,American Indian/ Alaska Native,Asian,Black,Hispanic,Native Hawaiian/ Pacific Islander,White,Two or More Races,Male,Female,Free lunch Eligible,Reduced-price Lunch eligible,Free lunch eligible by Direct Certification,Classroom Teachers (FTE), Student Teacher Ratio,Grade Levels,County,"Phoenix, AZ Metro Area High Schools Ranking - US News"
Boulder Creek High School,"Anthem, AZ",Public,85086,Yes,2375,17,29,36,18,26,30,25,19,95.53,1.16,99.05,19,12,37,38,347,4,1832,105,1244,1131,237,71,103,99.6,23.85,9-12,Maricopa,35
Great Hearts Academies - Anthem Prep,"Anthem, AZ",Public,85034,Yes,1029,12,19,46,23,10,18,37,34,100,1.13,99.12,17,2,86,16,157,0,688,80,469,560,NaN,NaN,NaN,NaN,NaN,KG-12,Maricopa,58
West-mec Boulder Creek High School,"Anthem, AZ",Public,85086,NaN,464,34,20,34,12,29,30,28,12,NaN,NaN,NaN,NaN,0,0,0,0,0,4,0,2,2,NaN,NaN,NaN,NaN,NaN,9-12,Maricopa,NaN
Agua Fria High School,"Avondale, AZ",Public,85323,NaN,1653,40,29,23,8,52,28,16,3,91.5,2.97,98.69,16.5,14,31,177,1184,6,201,39,817,835,842,181,398,92.3,17.9,9-12,Maricopa,65
Arizona Agribusiness & Equine Center - Estrella,"Avondale, AZ",Public,85323,NaN,412,11,18,47,23,18,21,29,21,100,0.22,99.75,20,2,25,16,209,0,138,22,179,233,NaN,NaN,NaN,NaN,NaN,9-12,Maricopa,83
E-institute at Avondale,"Avondale, AZ",Public,85201,NaN,872,63,22,13,2,68,26,6,1,14.43,15.72,74.56,NaN,0,5,1,47,1,119,11,112,72,NaN,NaN,NaN,70.7,2.6,9-12,Maricopa,NaN
Estrella High School,"Avondale, AZ",Public,85323,No,112,91,3,6,0,91,9,0,0,14.12,24.9,82.01,32.8,2,1,18,79,2,8,3,53,60,68,9,47,NaN,NaN,9-12,Maricopa,NaN
La Joya Community High School,"Avondale, AZ",Public,85323,NaN,2078,53,28,16,3,49,30,18,3,85.59,3.55,97.29,16,22,21,188,1694,5,98,50,1069,1009,872,228,449,87.8,23.67,9-12,Maricopa,137
West-mec - Agua Fria High School,"Avondale, AZ",Public,80923,NaN,NaN,NaN,NaN,NaN,NaN,NaN,NaN,NaN,NaN,NaN,NaN,NaN,NaN,0,0,1,0,0,5,0,2,4,NaN,NaN,NaN,NaN,NaN,9-12,Maricopa,NaN
West-mec - La Joya High School,"Avondale, AZ",Public,80923,NaN,NaN,NaN,NaN,NaN,NaN,NaN,NaN,NaN,NaN,NaN,NaN,NaN,NaN,0,0,1,0,0,1,1,1,2,NaN,NaN,NaN,NaN,NaN,9-12,Maricopa,NaN
West mec- West View High School,"Avondale, AZ",Public,80923,NaN,NaN,NaN,NaN,NaN,NaN,NaN,NaN,NaN,NaN,NaN,NaN,NaN,NaN,0,0,0,0,0,0,0,0,0,NaN,NaN,NaN,NaN,NaN,9-12,Maricopa,NaN
Westview High School,"Avondale, AZ",Public,85392,NaN,1864,45,31,20,5,52,30,16,2,86.01,3.56,95.3,15.8,25,43,220,1316,10,173,77,949,915,745,186,458,87.6,21.28,9-12,Maricopa,121
Aspc - Lewis,"Buckeye, AZ",Public,85326,NaN,NaN,NaN,NaN,NaN,NaN,NaN,NaN,NaN,NaN,NaN,NaN,NaN,NaN,NaN,NaN,NaN,NaN,NaN,NaN,NaN,NaN,NaN,NaN,NaN,NaN,NaN,NaN,NaN,NaN,NaN
Buckeye Union High School,"Buckeye, AZ",Public,85326,Yes,1778,45,29,22,5,43,29,21,7,94.52,2.19,99.71,16.2,28,4,122,1164,12,419,26,937,838,710,213,343,76.5,23.2,9-12,Maricopa,138
E-institute at Buckeye,"Buckeye, AZ",Public,85326,NaN,NaN,NaN,NaN,NaN,NaN,NaN,NaN,NaN,NaN,NaN,NaN,NaN,NaN,0,1,1,44,0,17,1,35,29,30,3,NaN,NaN,NaN,NaN,NaN,NaN
Odyssey Institute for Advanced and International Studies,"Buckeye, AZ",Public,85326,NaN,1762,35,26,31,8,51,24,18,7,96.45,0.17,99.94,17.9,15,29,112,753,9,756,87,869,892,NaN,NaN,NaN,NaN,NaN,6-12,Maricopa,89
Skyview High School,"Buckeye, AZ",Public,85326,Yes,174,76,12,12,0,86,11,3,0,29.49,26.69,84.12,32.7,2,0,19,106,0,41,7,99,76,110,19,49,NaN,NaN,9-12,Maricopa,NaN
Verrado High School,"Buckeye, AZ",Public,85396,NaN,1854,27,27,34,13,36,28,26,10,95.85,2.01,98.84,17.1,11,36,108,863,5,755,76,955,899,370,111,160,84.5,21.94,9-12,Maricopa,61
West-mec - Buckeye Union High School,"Buckeye, AZ",Public,85326,NaN,NaN,NaN,NaN,NaN,NaN,NaN,NaN,NaN,NaN,NaN,NaN,NaN,NaN,1,0,0,0,0,3,0,3,1,NaN,NaN,NaN,NaN,NaN,9-12,Maricopa,NaN
West-mec - Verrado High School,"Buckeye, AZ",Public,85396,NaN,NaN,NaN,NaN,NaN,NaN,NaN,NaN,NaN,NaN,NaN,NaN,NaN,NaN,0,0,4,0,0,6,0,7,3,NaN,NaN,NaN,NaN,NaN,9-12,Maricopa,NaN
West-mec - Youngker High School,"Buckeye, AZ",Public,85326,NaN,NaN,NaN,NaN,NaN,NaN,NaN,NaN,NaN,NaN,NaN,NaN,NaN,NaN,0,0,0,0,0,7,0,3,4,NaN,NaN,NaN,NaN,NaN,9-12,Maricopa,NaN
Youngker High School,"Buckeye, AZ",Public,85326,Yes,2107,37,29,27,7,42,26,23,10,92.34,2.68,99.8,17.1,19,15,192,1369,9,452,43,1028,1071,776,251,351,85,24.69,9-12,Maricopa,84
Arizona College Prep,"Chandler, AZ",Public,85249,NaN,1767,1,6,34,58,5,8,21,66,98.62,1.33,100,20,8,565,69,260,7,731,135,939,836,88,35,35,80,22.19,7-12,Maricopa,9
Az Compass Prep School,"Chandler, AZ",Public,85225,NaN,247,55,25,19,2,73,18,9,0,78.95,19.2,98.47,35,62,2,78,64,0,26,15,150,97,177,34,94,NaN,NaN,7-12,Maricopa,163-193
Basha High School,"Chandler, AZ",Public,85249,NaN,2797,8,21,42,30,12,21,29,39,91.47,1.53,98.59,17.1,40,308,133,494,9,1685,145,1461,1353,225,84,106,135.03,20.84,6-12,Maricopa,24
Basis Chandler,"Chandler, AZ",Public,85248,NaN,1147,4,10,52,34,3,9,29,60,100,0,99.47,20,2,935,46,38,2,96,27,607,539,NaN,NaN,NaN,NaN,NaN,5-12,Maricopa,4
Blueprint High School,"Chandler, AZ",Public,85225,NaN,NaN,NaN,NaN,NaN,NaN,NaN,NaN,NaN,NaN,NaN,NaN,NaN,NaN,5,1,0,36,0,3,0,22,23,30,4,11,NaN,NaN,NaN,NaN,NaN
Bogle Junior High School,"Chandler, AZ",Public,85248,NaN,1141,25,20,37,19,37,21,20,22,NaN,NaN,99.21,NaN,31,92,78,370,6,503,71,603,548,230,69,124,60.11,19.15,7-8,Maricopa,NaN
Brightmont Academy - Chandler,"Chandler, AZ",Private,85226,NaN,53,NaN,NaN,NaN,NaN,NaN,NaN,NaN,NaN,NaN,NaN,NaN,NaN,NaN,NaN,NaN,NaN,NaN,NaN,NaN,NaN,NaN,NaN,NaN,NaN,NaN,NaN,1-12,Maricopa,NaN
Chandler High School,"Chandler, AZ",Public,85225,NaN,3580,28,28,33,12,38,30,20,12,86.67,3.68,97.94,13.3,77,132,371,2013,25,804,175,1827,1770,1330,323,678,192.36,18.7,8-12,Maricopa,71
Chandler Online Academy,"Chandler, AZ",Public,85225,NaN,433,14,27,44,15,29,28,25,18,65.98,2.33,98.56,13.8,8,38,30,111,2,188,28,177,228,NaN,NaN,NaN,37.5,10.8,KG-12,Maricopa,NaN
Great Hearts Academies - Archway Chandler,"Chandler, AZ",Public,85034,Yes,532,10,15,36,39,3,12,36,49,NaN,NaN,99.25,NaN,3,93,25,100,0,254,58,261,272,NaN,NaN,NaN,NaN,NaN,KG-12,Maricopa,NaN
Great Hearts Academies - Chandler Prep,"Chandler, AZ",Public,85034,Yes,712,10,18,53,19,17,21,30,33,98.61,1.55,99.28,19.2,3,130,44,116,9,347,64,355,358,NaN,NaN,NaN,NaN,NaN,KG-12,Maricopa,48
Great Hearts Academies - Lincoln Prep,"Chandler, AZ",Public,85034,Yes,535,27,24,39,9,26,25,28,21,100,1.11,99.25,17.4,1,123,36,76,3,251,46,272,264,NaN,NaN,NaN,NaN,NaN,6-12,Maricopa,NaN
Hamilton High School,"Chandler, AZ",Public,85248,NaN,3828,11,20,38,31,18,21,24,37,90.18,2.86,99.03,16.4,88,719,304,828,8,1673,230,1886,1964,539,154,290,178.96,21.51,8-12,Maricopa,16
Intelli-school,"Chandler, AZ",Public,85225,NaN,51,67,13,13,7,60,33,7,0,14.81,31.25,77.19,NaN,0,0,3,38,0,8,2,25,26,NaN,NaN,NaN,NaN,NaN,9-12,Maricopa,NaN
Kaizen Education Foundation Dba El Dorado High School,"Chandler, AZ",Public,85225,No,202,87,9,2,2,82,18,0,0,17.81,17.94,86.34,33.5,3,2,30,119,0,44,5,110,93,103,22,75,NaN,NaN,9-12,Maricopa,NaN
Ken 'chief' Hill Learning Academy,"Chandler, AZ",Public,85225,NaN,NaN,NaN,NaN,NaN,NaN,NaN,NaN,NaN,NaN,NaN,NaN,NaN,NaN,NaN,NaN,NaN,NaN,NaN,NaN,NaN,NaN,NaN,NaN,NaN,NaN,NaN,NaN,NaN,NaN,NaN
Mosaica Preparatory Academy of Chandler,"Chandler, AZ",Public,85226,NaN,NaN,NaN,NaN,NaN,NaN,NaN,NaN,NaN,NaN,NaN,NaN,NaN,NaN,NaN,NaN,NaN,NaN,NaN,NaN,NaN,NaN,NaN,NaN,NaN,NaN,NaN,NaN,NaN,NaN,NaN
Oasis Recovery,"Chandler, AZ",Private,85225,NaN,NaN,NaN,NaN,NaN,NaN,NaN,NaN,NaN,NaN,NaN,NaN,NaN,NaN,0,1,9,4,0,20,1,18,17,NaN,NaN,NaN,NaN,NaN,NaN,NaN,NaN
Paragon Science Academy,"Chandler, AZ",Public,85224,NaN,547,16,24,40,21,18,20,30,32,100,0,100,20,6,133,151,44,0,197,17,272,276,186,21,152,NaN,NaN,KG-12,Maricopa,27
Primavera - Online,"Chandler, AZ",Public,85225,NaN,6381,45,27,23,5,68,22,8,2,32.37,16.57,79.72,3.1,257,75,316,2786,15,2578,365,2884,3508,NaN,NaN,NaN,NaN,NaN,KG-12,Maricopa,163-193
Santan Junior High School,"Chandler, AZ",Public,85249,NaN,1228,21,21,41,17,31,25,27,17,NaN,NaN,99.28,NaN,16,80,64,228,2,765,79,606,628,111,49,71,60.78,20.3,7-8,Maricopa,NaN
Seton Catholic Preparatory High School,"Chandler, AZ",Private,85224,NaN,544,NaN,NaN,NaN,NaN,NaN,NaN,NaN,NaN,NaN,NaN,NaN,NaN,0,0,0,208,336,0,0,NaN,NaN,NaN,NaN,NaN,53.5,10.2,9-12,Maricopa,NaN
Tri-city Christian Academy,"Chandler, AZ",Private,85286,NaN,235,NaN,NaN,NaN,NaN,NaN,NaN,NaN,NaN,NaN,NaN,NaN,NaN,0,30,15,50,140,0,0,NaN,NaN,NaN,NaN,NaN,21,11.2,KG-12,Maricopa,NaN
Valley Christian High School,"Chandler, AZ",Private,85283,NaN,119,NaN,NaN,NaN,NaN,NaN,NaN,NaN,NaN,NaN,NaN,NaN,NaN,NaN,NaN,NaN,NaN,NaN,NaN,NaN,NaN,NaN,NaN,NaN,NaN,9.9,12,7-8,Maricopa,NaN
Willis Junior High School,"Chandler, AZ",Public,85225,NaN,858,41,19,30,9,51,19,17,13,NaN,NaN,99.89,NaN,15,34,49,499,5,229,34,434,431,380,95,181,45.88,18.85,7-8,Maricopa,NaN
Dysart High School,"El Mirage, AZ",Public,85335,NaN,1427,33,27,31,8,35,33,24,8,91.94,2.34,99.78,12.9,14,41,126,874,8,315,55,770,663,673,157,331,70.8,20.24,7-12,Maricopa,90
West-mec - Dysart High School,"El Mirage, AZ",Public,85335,NaN,1,NaN,NaN,NaN,NaN,NaN,NaN,NaN,NaN,NaN,NaN,NaN,NaN,0,0,0,0,0,1,0,0,1,NaN,NaN,NaN,NaN,NaN,9-12,Maricopa,NaN
Fountain Hills High School,"Fountain Hills, AZ",Public,85268,NaN,467,22,34,31,13,31,24,25,20,79.46,1.86,98.46,15.5,60,11,8,57,0,299,31,265,201,69,9,38,NaN,NaN,9-12,Maricopa,41
Fountain Hills.online,"Fountain Hills, AZ",Public,85268,NaN,37,NaN,NaN,NaN,NaN,NaN,NaN,NaN,NaN,NaN,NaN,NaN,NaN,11,0,1,6,0,15,4,18,19,NaN,NaN,NaN,NaN,NaN,KG-12,Maricopa,NaN
Gila Bend High School,"Gila Bend, AZ",Public,85337,NaN,156,84,9,6,0,82,15,3,0,38.46,5.26,95.95,0,40,0,1,105,0,5,5,81,75,156,0,44,10.51,14.84,9-12,Maricopa,156
Arizona Connections Academy,"Gilbert, AZ",Public,85297,No,2568,38,24,30,7,60,22,14,4,70.04,13.63,99.38,6.4,87,29,198,834,14,1186,228,1253,1323,NaN,NaN,NaN,NaN,NaN,KG-12,Maricopa,133
Campo Verde High School,"Gilbert, AZ",Public,85297,NaN,1986,17,21,42,20,21,27,29,24,95.01,1.26,98.99,19.5,30,60,54,449,6,1295,97,992,999,199,79,77,86.8,22.94,8-12,Maricopa,20
Cenpatico Schools,"Gilbert, AZ",Private,85233,NaN,45,NaN,NaN,NaN,NaN,NaN,NaN,NaN,NaN,NaN,NaN,NaN,NaN,2,1,8,23,0,11,0,40,5,NaN,NaN,NaN,NaN,NaN,NaN,NaN,NaN
Cooley Middle School,"Gilbert, AZ",Public,85295,NaN,874,35,18,35,11,39,20,23,18,NaN,NaN,99.89,NaN,9,37,71,231,5,474,46,440,433,148,61,85,51.15,17.07,6-8,Maricopa,NaN
Desert Hills High School,"Gilbert, AZ",Public,85296,Yes,264,52,33,14,0,79,14,7,0,32.08,17.16,82.53,32.5,34,1,19,102,1,96,11,126,138,110,18,69,NaN,NaN,9-12,Maricopa,NaN
Eduprize School Gilbert,"Gilbert, AZ",Public,85233,Yes,1415,26,20,40,15,29,24,32,15,100,1.52,99.29,0,11,43,62,366,2,884,61,720,709,NaN,NaN,NaN,NaN,NaN,KG-12,Maricopa,123
Gilbert High School,"Gilbert, AZ",Public,85234,NaN,2350,25,29,33,14,31,28,26,16,88.07,2.56,98.02,20,34,87,90,737,9,1261,136,1214,1140,470,211,207,111,21.21,7-12,Maricopa,78
Ironwood High School,"Glendale, AZ",Public,85304,NaN,1922,25,30,33,12,34,32,22,13,92.06,2.13,99.51,20,14,84,131,825,9,756,103,963,959,691,153,357,91.93,20.91,7-12,Maricopa,75
"Jefferson Preparatory High School","Glendale, AZ",Public,85306,NaN,57,NaN,NaN,NaN,NaN,NaN,NaN,NaN,NaN,100,3.15,96.15,16,0,9,4,8,1,33,2,26,31,11,1,8,NaN,-57,9-12,Maricopa,NaN
"Life Development Institute","Glendale, AZ",Private,85308,NaN,NaN,NaN,NaN,NaN,NaN,NaN,NaN,NaN,NaN,NaN,NaN,NaN,NaN,NaN,NaN,NaN,NaN,NaN,NaN,NaN,NaN,NaN,NaN,NaN,NaN,NaN,NaN,NaN,Maricopa,NaN
"Mountain Ridge High School","Glendale, AZ",Public,85310,Y,2770,17,27,37,19,21,28,27,24,98.94,23,99.52,19.9,5,339,59,361,11,1868,128,1412,1359,139,83,94,110.6,25.05,7-12,Maricopa,19
"Ombudsman - Charter West","Glendale, AZ",Public,85308,NaN,118,74,11,11,5,85,15,0,0,29.31,30.45,71.29,35,0,1,17,39,1,59,1,68,50,NaN,NaN,NaN,NaN,NaN,9-12,Maricopa,NaN
"Raymond S. Kellis","Glendale, AZ",Public,85305,NaN,1818,34,34,28,4,40,34,18,8,90.2,2.52,99.07,18.2,23,78,161,1055,7,425,68,884,933,690,181,349,86.45,21.02,7-12,Maricopa,100
"Sandra Day O'Connor High School","Glendale, AZ",Public,85310,Y,2566,16,32,37,15,21,33,26,20,96.86,0.36,99.73,20,16,148,64,351,4,1892,92,1315,1252,256,77,119,104.3,24.61,7-12,Maricopa,31
"Sunflower School","Glendale, AZ",Public,85306,NaN,24,NaN,NaN,NaN,NaN,NaN,NaN,NaN,NaN,NaN,8.33,86.36,NaN,2,0,2,13,0,7,1,11,14,14,14,6,3,8.33,PK-12,Maricopa,NaN
"Vision Christian Academy","Glendale, AZ",Private,85307,NaN,36,NaN,NaN,NaN,NaN,NaN,NaN,NaN,NaN,NaN,NaN,NaN,NaN,0,2,0,17,0,15,0,NaN,NaN,NaN,NaN,NaN,7.4,4.6,PK-12,Maricopa,NaN
"West-Mec - Apollo High School","Glendale, AZ",Public,85302,NaN,1,NaN,NaN,NaN,NaN,NaN,NaN,NaN,NaN,NaN,NaN,NaN,NaN,0,0,1,0,0,0,0,0,1,NaN,NaN,NaN,NaN,NaN,9-12,Maricopa,NaN
"West-Mec - Cactus High School","Glendale, AZ",Public,85306,NaN,0,NaN,NaN,NaN,NaN,NaN,NaN,NaN,NaN,NaN,NaN,NaN,NaN,0,0,1,0,0,0,0,0,1,NaN,NaN,NaN,NaN,NaN,9-12,Maricopa,NaN
"West-Mec - Central Campus","Glendale, AZ",Public,85307,NaN,13,NaN,NaN,NaN,NaN,NaN,NaN,NaN,NaN,NaN,NaN,NaN,NaN,1,1,0,0,0,11,0,12,1,NaN,NaN,NaN,8,1.62,9-12,Maricopa,NaN
"West-Mec - Copper Canyon High School","Glendale, AZ",Public,85305,NaN,2,NaN,NaN,NaN,NaN,NaN,NaN,NaN,NaN,NaN,NaN,NaN,NaN,0,0,0,0,0,2,0,2,0,NaN,NaN,NaN,NaN,NaN,9-12,Maricopa,NaN
"West-Mec - Deer Valley High School","Glendale, AZ",Public,85308,NaN,6,NaN,NaN,NaN,NaN,NaN,NaN,NaN,NaN,NaN,NaN,NaN,NaN,0,1,1,0,0,4,0,5,1,NaN,NaN,NaN,NaN,NaN,9-12,Maricopa,NaN
West-Mec - Glendale High School,"Glendale, AZ",Public,85301,NaN,8,NaN,NaN,NaN,NaN,NaN,NaN,NaN,NaN,NaN,NaN,NaN,NaN,0,0,1,0,0,7,0,3,5,NaN,NaN,NaN,NaN,NaN,9-12,Maricopa,NaN
West-Mec - Independence High School,"Glendale, AZ",Public,85303,NaN,5,NaN,NaN,NaN,NaN,NaN,NaN,NaN,NaN,NaN,NaN,NaN,NaN,0,0,0,0,0,4,1,3,2,NaN,NaN,NaN,NaN,NaN,9-12,Maricopa,NaN
"West-Mec - Ironwood High School","Glendale, AZ",Public,85304,NaN,1,NaN,NaN,NaN,NaN,NaN,NaN,NaN,NaN,NaN,NaN,NaN,NaN,0,0,0,0,1,4,1,1,0,NaN,NaN,NaN,NaN,NaN,9-12,Maricopa,NaN
"West-Mec - Mountain Ridge High School","Glendale, AZ",Public,85310,NaN,2,NaN,NaN,NaN,NaN,NaN,NaN,NaN,NaN,NaN,NaN,NaN,NaN,0,0,0,0,0,2,0,1,1,NaN,NaN,NaN,NaN,NaN,9-12,Maricopa,NaN
"West-Mec - Raymond S. Kellis","Glendale, AZ",Public,85308,NaN,3,NaN,NaN,NaN,NaN,NaN,NaN,NaN,NaN,NaN,NaN,NaN,NaN,0,0,0,0,0,2,1,1,2,NaN,NaN,NaN,NaN,NaN,7-12,Maricopa,NaN
"West-Mec - Sandra Day O'Connor High School","Glendale, AZ",Public,85310,NaN,2,NaN,NaN,NaN,NaN,NaN,NaN,NaN,NaN,NaN,NaN,NaN,NaN,0,0,0,0,0,2,0,0,2,NaN,NaN,NaN,NaN,NaN,9-12,Maricopa,NaN
"Westland School Brighton Campus","Glendale, AZ",Public,85305,NaN,320,49,21,22,8,51,26,18,5,90.91,4.03,97.98,15.1,9,2,48,164,8,74,15,162,158,230,28,104,NaN,NaN,KG-12,Maricopa,159
"Aspc-Perryville","Goodyear, AZ",Public,85338,NaN,NaN,NaN,NaN,NaN,NaN,NaN,NaN,NaN,NaN,NaN,NaN,NaN,NaN,NaN,NaN,NaN,NaN,NaN,NaN,NaN,NaN,NaN,NaN,NaN,NaN,NaN,NaN,NaN,NaN,NaN
"Basis Goodyear","Goodyear, AZ",Public,85338,NaN,290,NaN,NaN,NaN,NaN,NaN,NaN,NaN,NaN,NaN,NaN,NaN,NaN,2,76,55,76,1,62,18,141,149,NaN,NaN,NaN,NaN,NaN,5-12,Maricopa,NaN
"Desert Edge High School","Goodyear, AZ",Public,85338,NaN,1993,36,28,30,6,47,31,16,6,93.48,2.62,99.29,16,11,53,263,1150,11,408,95,1042,949,756,258,307,84.3,23.62,9-12,Maricopa,77
"Estrella Foothills High School","Goodyear, AZ",Public,85338,Y,1398,26,30,35,10,29,29,29,13,95.54,1.35,99.7,19,12,13,68,644,5,596,60,701,697,52,26.88,279,111,137,9-12,Maricopa,72
"Great Hearts Academies - Archway Trivium West","Goodyear, AZ",Public,85395,NaN,NaN,NaN,NaN,NaN,NaN,NaN,NaN,NaN,NaN,NaN,NaN,NaN,NaN,NaN,NaN,NaN,NaN,NaN,NaN,NaN,NaN,NaN,NaN,NaN,NaN,NaN,NaN,NaN,NaN,NaN
"Great Hearts Academies - Trivium Prep","Goodyear, AZ",Public,85395,NaN,894,NaN,NaN,NaN,NaN,NaN,NaN,NaN,NaN,NaN,NaN,NaN,NaN,3,89,55,316,7,355,69,452,442,NaN,NaN,NaN,NaN,NaN,6-12,Maricopa,NaN
"Millennium High School","Goodyear, AZ",Public,85395,NaN,2121,18,25,39,17,34,26,23,17,93.75,1.05,99.14,18.3,3,89,55,316,7,355,69,452,442,NaN,NaN,NaN,NaN,NaN,6-12,Maricopa,37
"West-Mec - Desert Edge High School","Goodyear, AZ",Public,85034,NaN,7,NaN,NaN,NaN,NaN,NaN,NaN,NaN,NaN,NaN,NaN,NaN,NaN,0,1,1,0,0,3,2,4,3,NaN,NaN,NaN,NaN,NaN,9-12,Maricopa,NaN
West-Mec - Estrella Foothills High School,"Goodyear, AZ",Public,85338,NaN,2,NaN,NaN,NaN,NaN,NaN,NaN,NaN,NaN,NaN,NaN,NaN,NaN,0,0,0,0,0,2,0,0,2,NaN,NaN,NaN,NaN,NaN,9-12,Maricopa,NaN
West-Mec - Millennium High School,"Goodyear, AZ",Public,85338,NaN,11,NaN,NaN,NaN,NaN,NaN,NaN,NaN,NaN,NaN,NaN,NaN,NaN,1,0,3,0,0,7,0,3,8,NaN,NaN,NaN,NaN,NaN,7-12,Maricopa,NaN
"Williams Field High School","Highley, AZ",Public,85236,NaN,2115,15,23,38,23,17,24,31,27,97,1.05,99.39,18.4,24,99,165,490,11,1179,147,1103,1102,274,105,150,98.65,21.44,8-12,Maricopa,51
"Betty Fairfax High School","Laveen, AZ",Public,85339,NaN,1973,46,29,21,4,46,32,17,5,80.1,4.02,97.71,16.1,138,42,408,1160,9,149,67,970,1003,966,177,458,90,21.92,9-12,Maricopa,122
"Cesar Chavez High School","Laveen, AZ",Public,85339,NaN,2724,62,22,15,2,61,28,10,2,80.31,3.19,97.67,14.3,78,30,393,2055,9,96,64,1351,1374,1444,245,709,126.94,21.47,9-12,Maricopa,108
Country Gardens Charter School,"Laveen, AZ",Public,85339,Y,322,54,22,19,5,53,29,12,6,100,11.32,98.36,20,5,2,34,179,0,88,10,156,162,NaN,NaN,NaN,NaN,NaN,KG-12,Maricopa,NaN
"Heritage Academy Laveen","Laveen, AZ",Public,85339,NaN,650,33,24,36,7,48,29,16,7,98.82,0.2,99.37,20,5,23,52,351,4,191,24,317,333,NaN,NaN,NaN,NaN,NaN,6-12,Maricopa,163-193
Academy with Community Partners,"Mesa, AZ",Public,85203,N,171,77,21,2,0,70,30,0,0,22.03,27.14,83.58,31.9,10,3,13,93,0,43,9,89,82,NaN,NaN,NaN,NaN,NaN,9-12,Maricopa,NaN
Arizona Agribusiness & Equine Center Inc. - Red Mountain,"Mesa, AZ",Public,85215,NaN,NaN,NaN,NaN,NaN,NaN,NaN,NaN,NaN,NaN,NaN,NaN,NaN,NaN,NaN,NaN,NaN,NaN,NaN,NaN,NaN,NaN,NaN,NaN,NaN,NaN,NaN,NaN,NaN,NaN,NaN
Asu Preparatory Academy-Polytechnic High School,"Mesa, AZ",Public,85215,N,457,15,21,40,24,24,26,25,24,100,0.67,99.54,19.3,12,20,30,204,2,164,26,272,186,NaN,NaN,NaN,NaN,NaN,8-12,Maricopa,99
"Basis Mesa","Mesa, AZ",Public,85212,NaN,837,8,12,54,26,10,23,37,30,100,0,99.76,20,4,260,49,151,0,314,62,450,390,NaN,NaN,NaN,NaN,NaN,KG-12,Maricopa,8
Carson Junior High School,"Mesa, AZ",Public,85201,NaN,1062,NaN,NaN,NaN,NaN,NaN,NaN,NaN,NaN,NaN,NaN,NaN,NaN,126,4,83,605,18,187,39,537,525,637,106,382,55.54,19.12,7-8,Maricopa,NaN
Desert Ridge High School,"Mesa, AZ",Public,85209,NaN,2284,NaN,NaN,NaN,NaN,NaN,NaN,NaN,NaN,NaN,NaN,NaN,NaN,20,58,66,678,11,1349,102,1179,1105,342,182,166,98.8,23.12,8-12,Maricopa,98
"Desert Ridge Junior High School","Mesa, AZ",Public,85209,NaN,973,NaN,NaN,NaN,NaN,NaN,NaN,NaN,NaN,NaN,NaN,NaN,NaN,6,17,36,261,5,582,66,503,470,184,68,88,47.8,20.36,7-8,Maricopa,NaN
Dobson High School,"Mesa, AZ",Public,85202,NaN,2370,46,23,25,6,51,27,16,5,78.94,3.95,97.74,17.3,145,55,190,1251,34,622,73,1201,1169,1019,260,513,117.7,20.14,9-12,Maricopa,110
Eagleridge Enrichment Program,"Mesa, AZ",Public,85210,NaN,645,30,22,30,17,43,9,39,9,NaN,NaN,100,NaN,1,16,11,91,0,499,26,324,320,64,38,46,11.47,56.15,KG-9,Maricopa,NaN
East Valley Academ,"Mesa, AZ",Public,85201,N,307,83,17,0,0,83,17,0,0,18.87,26.75,81.69,20.8,24,0,13,230,2,33,5,156,151,27.2,11.29,165,18,82,9-12,Maricopa,NaN
East Valley High School,"Mesa, AZ",Public,85207,NaN,156,64,20,13,2,74,19,6,0,72.92,20.41,98.81,27.1,4,1,10,81,0,48,11,85,70,29,9,NaN,NaN,NaN,9-12,Maricopa,NaN
Faith Christian School,"Mesa, AZ",Public,85205,NaN,NaN,NaN,NaN,NaN,NaN,NaN,NaN,NaN,NaN,NaN,NaN,NaN,NaN,NaN,NaN,NaN,NaN,NaN,NaN,NaN,NaN,NaN,NaN,NaN,NaN,NaN,NaN,NaN,NaN,NaN
Franklin Junior High School,"Mesa, AZ",Public,85206,NaN,269,1,9,45,44,6,13,32,49,NaN,NaN,100,NaN,6,4,3,64,0,187,5,114,155,45,21,24,18.2,14.78,7-8,Maricopa,NaN
"Fremont Junior High School","Mesa, AZ",Public,85205,NaN,986,38,22,30,10,37,19,21,23,NaN,NaN,100,NaN,12,8,35,384,4,511,30,539,445,334,108,171,55,17.89,7-8,Maricopa,NaN
"Heritage Academy","Mesa, AZ",Public,85210,NaN,782,13,22,47,17,26,27,32,15,91.89,0.92,98.69,20,2,3,5,204,3,551,14,372,410,NaN,NaN,NaN,NaN,NaN,7-12,Maricopa,39
Highland Jr High School,"Mesa, AZ",Public,85212,NaN,979,26,21,36,17,35,18,22,26,NaN,NaN,100,NaN,19,34,24,210,6,628,58,498,481,215,78,90,46.8,20.92,6-8,Maricopa,NaN
"Imagine East Mesa Middle School","Mesa, AZ",Public,85208,N,120,32,22,38,8,44,27,19,9,NaN,NaN,100,NaN,0,1,7,52,0,48,12,64,56,NaN,NaN,50,25,23,7-8,Maricopa,NaN
Kino Junior High School,"Mesa, AZ",Public,85203,NaN,915,69,18,12,1,87,10,3,0,NaN,NaN,96.36,NaN,61,0,46,702,3,79,23,455,459,603,109,291,55.17,16.57,7-8,Maricopa,NaN
Learning Foundation,"Mesa, AZ",Public,85203,N,190,69,16,14,2,60,19,19,2,NaN,NaN,94.35,NaN,1,1,18,111,0,44,15,89,101,140,15,79,NaN,NaN,KG-12,Maricopa,163-193
"Legacy Elementary School","Mesa, AZ",Public,85207,NaN,NaN,NaN,NaN,NaN,NaN,NaN,NaN,NaN,NaN,NaN,NaN,NaN,NaN,NaN,NaN,NaN,NaN,NaN,NaN,NaN,NaN,NaN,NaN,NaN,NaN,NaN,NaN,NaN,NaN,NaN
"Mesa Academy for Advanced Studies","Mesa, AZ",Public,85207,NaN,409,1,5,46,48,4,14,39,43,NaN,NaN,100,NaN,4,11,9,86,0,276,24,218,192,49,28,24,21.8,18.81,4-9,Maricopa,NaN
"Mesa Distance Learning Program","Mesa, AZ",Public,85203,NaN,107,15,24,49,12,35,28,33,4,0,12.78,86.6,NaN,3,1,5,37,0,59,2,39,68,NaN,NaN,NaN,43.2,2.48,KG-12,Maricopa,163-193
Mesa High School,"Mesa, AZ",Public,85204,NaN,3475,52,27,17,5,50,30,13,6,77.88,5.98,98.18,17,68,16,142,2416,21,745,67,1767,1708,1633,417,732,166.4,20.88,9-12,Maricopa,104
"Mesa Transitional Learning Center","Mesa, AZ",Public,85210,NaN,NaN,NaN,NaN,NaN,NaN,NaN,NaN,NaN,NaN,NaN,NaN,NaN,NaN,NaN,NaN,NaN,NaN,NaN,NaN,NaN,NaN,NaN,NaN,NaN,NaN,NaN,NaN,NaN,NaN,NaN
Mountain View High School,"Mesa, AZ",Public,85213,NaN,3374,19,26,34,21,24,26,29,21,85.36,2.96,98.46,18.5,152,36,99,1004,25,1971,85,1720,1652,741,236,345,160.8,20.97,9-12,Maricopa,44
"Poston Junior High School","Mesa, AZ",Public,85213,NaN,881,49,22,24,5,59,17,14,10,NaN,NaN,100,NaN,25,5,43,462,9,307,30,448,433,49.01,17.98,431,88,241,7-8,Maricopa,NaN
"Red Mountain High School","Mesa, AZ",Public,85207,NaN,3448,23,22,34,21,24,26,22,27,91.14,1.77,99.2,18.4,50,62,123,883,19,2193,118,1761,1687,724,206,385,166,20.77,9-12,Maricopa,28
"Redeemer Christian School","Mesa, AZ",Private,85203,NaN,93,NaN,NaN,NaN,NaN,NaN,NaN,NaN,NaN,NaN,NaN,NaN,NaN,11,2,4,22,49,1,4,NaN,NaN,NaN,NaN,NaN,NaN,7.8,12,NaN,NaN
"Rhodes Junior High School","Mesa, AZ",Public,85202,N,677,58,21,18,3,73,12,9,5,NaN,NaN,100,NaN,64,4,50,432,7,101,21,351,328,373,88,192,41,16.56,7-9,Maricopa,NaN
"Sequoia Choice School Arizona Distance Learning School","Mesa, AZ",Public,85204,NaN,3062,52,20,23,5,71,17,9,3,27.86,16.76,87.85,11.4,110,26,125,612,13,2068,129,1580,1503,NaN,NaN,NaN,NaN,NaN,KG-12,Maricopa,NaN
"Sequoia School for the Deaf and Hard of Hearing","Mesa, AZ",Public,85204,NaN,NaN,NaN,NaN,NaN,NaN,NaN,NaN,NaN,NaN,NaN,NaN,NaN,NaN,NaN,NaN,NaN,NaN,NaN,NaN,NaN,NaN,NaN,NaN,NaN,NaN,NaN,NaN,NaN,NaN,NaN
"Sequoia Secondary School","Mesa, AZ",Public,85204,NaN,371,72,16,10,2,78,15,5,1,74.51,9.82,99.45,14.1,13,0,20,275,5,51,8,183,189,174,0,122,NaN,NaN,7-12,Maricopa,163-193
"Shepherd Junior High School","Mesa, AZ",Public,85205,NaN,604,34,24,33,9,45,22,21,12,NaN,NaN,99.84,NaN,8,9,12,188,6,352,28,276,327,150,60,87,33.6,17.95,4-8,Maricopa,NaN
"Skyline High School","Mesa, AZ",Public,85208,NaN,2249,47,26,21,6,52,28,16,4,78.75,5.17,97.86,15.7,55,27,99,1134,12,875,46,1146,1102,944,224,444,145.56,15.44,9-12,Maricopa,106
"Smith Junior High School","Mesa, AZ",Public,85207,NaN,841,45,23,27,5,69,16,12,3,NaN,NaN,100,NaN,21,13,31,383,6,353,34,462,379,462,379,378,92,208,7-8,Maricopa,NaN
"Sonoran Desert School","Mesa, AZ",Public,85205,NaN,NaN,NaN,NaN,NaN,NaN,NaN,NaN,NaN,NaN,NaN,NaN,NaN,NaN,NaN,NaN,NaN,NaN,NaN,NaN,NaN,NaN,NaN,NaN,NaN,NaN,NaN,NaN,NaN,NaN,NaN
"Stapley Junior High School","Mesa, AZ",Public,85213,NaN,980,31,20,37,12,30,14,23,33,NaN,NaN,100,NaN,85,8,9,212,3,646,15,507,471,195,48,99,50,19.56,7-8,Maricopa,NaN
"Sun Valley High School","Mesa, AZ",Public,85204,NaN,372,76,17,4,3,82,17,1,0,16.58,34.33,78.42,35,16,2,28,243,1,69,14,177,196,205,26,129,NaN,NaN,9-12,Maricopa,NaN
Taylor Junior High School,"Mesa, AZ",Public,85204,NaN,995,52,22,23,4,58,19,16,6,NaN,NaN,97.16,NaN,25,6,46,603,10,284,21,516,479,497,129,263,7-8,57.17,7-8,Maricopa,NaN
"Vista Grove Preparatory Academy Middle School","Mesa, AZ",Public,85213,Y,31,60,24,16,0,88,4,8,0,NaN,NaN,100,NaN,2,0,13,14,0,1,1,15,16,24,0,17,NaN,NaN,7-9,Maricopa,NaN
"Westwood High School","Mesa, AZ",Public,85201,NaN,3571,55,22,17,6,53,26,14,6,68.9,7.9,96.96,17.4,401,31,214,2047,37,754,86,1787,1783,1749,392,847,170.2,20.98,9-12,Maricopa,109
Phoenix Country Day School,"Mesa, AZ",Private,85253,NaN,NaN,NaN,NaN,NaN,NaN,NaN,NaN,NaN,NaN,NaN,NaN,NaN,NaN,NaN,NaN,NaN,NaN,NaN,NaN,NaN,NaN,NaN,NaN,NaN,NaN,NaN,NaN,NaN,NaN,NaN
"Aurora Day School","Peoria, AZ",Private,85381,NaN,NaN,NaN,NaN,NaN,NaN,NaN,NaN,NaN,NaN,NaN,NaN,NaN,NaN,NaN,NaN,NaN,NaN,NaN,NaN,NaN,NaN,NaN,NaN,NaN,NaN,NaN,NaN,NaN,NaN,NaN
"Basis Peoria","Peoria, AZ",Public,85383,NaN,974,6,12,51,30,4,13,36,47,100,0,99.69,20,3,669,49,59,5,156,33,521,453,NaN,NaN,NaN,NaN,NaN,5-12,Maricopa,1
"Centennial High School","Peoria, AZ",Public,85381,NaN,2007,22,26,37,15,25,31,26,18,96.04,1.01,99.59,20,25,69,118,764,6,920,105,1036,971,521,100,252,88.73,22.62,7-12,Maricopa,57
"Desert Pointe Academy","Peoria, AZ",Public,85345,NaN,NaN,NaN,NaN,NaN,NaN,NaN,NaN,NaN,NaN,NaN,NaN,NaN,NaN,NaN,NaN,NaN,NaN,NaN,NaN,NaN,NaN,NaN,NaN,NaN,NaN,NaN,NaN,NaN,NaN,NaN
"Great Hearts Academies - Glendale Prep","Peoria, AZ",Public,85383,Y,610,13,21,48,17,21,24,30,25,100,0.9,100,19,3,80,12,89,5,389,32,287,323,NaN,NaN,NaN,NaN,NaN,6-12,Maricopa,69
"Liberty High School","Peoria, AZ",Public,85383,NaN,2603,15,28,46,11,22,33,28,18,98.28,0.67,99.58,20,10,99,82,428,10,1836,138,1329,1274,182,52,93,116.05,22.43,7-12,Maricopa,74
"Ombudsman - Charter Northwest","Peoria, AZ",Public,85345,NaN,142,75,18,4,4,76,21,3,0,20.99,15.02,70.55,34.2,5,0,16,78,1,41,1,79,63,NaN,NaN,NaN,NaN,NaN,9-12,Maricopa,NaN
"Peoria Accelerated High School","Peoria, AZ",Public,85345,NaN,543,75,18,7,0,77,21,2,0,25.48,18.23,84.26,35,11,7,57,368,3,82,21,274,275,345,43,186,NaN,NaN,9-12,Maricopa,NaN
Peoria Ecampus,"Peoria, AZ",Public,85304,NaN,188,21,19,45,15,37,27,22,14,NaN,1.44,100,17.9,3,6,12,72,2,87,7,78,111,NaN,NaN,NaN,NaN,NaN,KG-12,Maricopa,NaN
"Peoria Flex Academy","Peoria, AZ",Public,85381,NaN,92,79,14,7,0,67,24,9,0,84.13,6.75,93.1,24.5,3,1,5,44,0,37,2,54,38,39,5,32,20.43,4.5,8-12,Maricopa,NaN
"Peoria High School","Peoria, AZ",Public,85345,NaN,1564,39,28,27,6,45,31,15,9,95.48,1.59,99.58,19.7,32,53,155,863,8,398,57,768,798,704,140,375,73.29,21.37,7-12,Maricopa,113
Sonoran Science Academy-Peoria,"Peoria, AZ",Public,85382,NaN,232,41,22,26,11,45,25,19,11,NaN,NaN,100,NaN,3,7,37,51,1,113,21,137,96,76,18,39,NaN,NaN,KG-8,Maricopa,NaN
"Student Choice High School","Peoria, AZ",Public,85382,N,229,NaN,NaN,NaN,NaN,NaN,NaN,NaN,NaN,NaN,NaN,NaN,NaN,2,6,13,71,0,137,0,130,99,NaN,NaN,NaN,NaN,NaN,9-12,Maricopa,NaN
"Sunrise Mountain High School","Peoria, AZ",Public,85382,NaN,2018,16,29,36,19,23,28,27,22,98.59,0.83,99.85,20,7,62,60,392,5,1401,91,1063,955,242,60,136,99.61,20.26,7-12,Maricopa,79
"West-Mec - Centennial High School","Peoria, AZ",Public,85381,NaN,1,NaN,NaN,NaN,NaN,NaN,NaN,NaN,NaN,NaN,NaN,NaN,NaN,0,0,0,0,0,1,0,1,0,NaN,NaN,NaN,NaN,NaN,9-12,Maricopa,NaN
"West-Mec - Liberty High School","Peoria, AZ",Public,85383,NaN,0,NaN,NaN,NaN,NaN,NaN,NaN,NaN,NaN,NaN,NaN,NaN,NaN,0,0,0,0,0,0,0,0,0,NaN,NaN,NaN,NaN,NaN,9-12,Maricopa,NaN
"West-Mec - Peoria High School","Peoria, AZ",Public,85345,NaN,2,NaN,NaN,NaN,NaN,NaN,NaN,NaN,NaN,NaN,NaN,NaN,NaN,0,0,0,0,0,2,0,1,1,NaN,NaN,NaN,NaN,NaN,7-12,Maricopa,NaN
"West-Mec - Sunrise Mountain High School","Peoria, AZ",Public,85382,NaN,0,NaN,NaN,NaN,NaN,NaN,NaN,NaN,NaN,NaN,NaN,NaN,NaN,0,0,0,0,0,0,0,0,0,0,0,0,0,0,7-12,Maricopa,NaN
"91st Psalm Christian School","Phoenix, AZ",Private,85042,NaN,172,NaN,NaN,NaN,NaN,NaN,NaN,NaN,NaN,NaN,NaN,NaN,NaN,1,4,13,89,43,0,5,NaN,NaN,NaN,NaN,NaN,15.3,10.1,PK-12,Maricopa,NaN
"Aaec - Paradise Valley","Phoenix, AZ",Public,85032,NaN,315,5,14,48,32,14,31,26,29,100,0.87,100,20,1,13,5,53,0,230,14,114,202,NaN,NaN,NaN,NaN,NaN,9-12,Maricopa,NaN
"Aaec - Smcc Campus","Phoenix, AZ",Public,85042,NaN,484,22,31,40,7,41,35,22,3,99.15,0,100,20,4,2,19,430,0,27,4,200,286,213,34,94,NaN,NaN,9-12,Maricopa,NaN
Accel,"Phoenix, AZ",Private,85051,NaN,184,NaN,NaN,NaN,NaN,NaN,NaN,NaN,NaN,NaN,NaN,NaN,NaN,3,1,23,73,79,0,5,NaN,NaN,NaN,NaN,NaN,19,9.7,KG-12,Maricopa,NaN
Accelerated Learning Center,"Phoenix, AZ",Public,85028,NaN,153,48,35,18,0,56,29,12,2,51.22,4.07,79.5,NaN,1,1,1,16,1,75,4,60,40,NaN,NaN,NaN,19,15:1,NaN,Maricopa,NaN
Adobe Mountain School,"Phoenix, AZ",Public,85027,NaN,NaN,NaN,NaN,NaN,NaN,NaN,NaN,NaN,NaN,NaN,NaN,NaN,NaN,NaN,NaN,NaN,NaN,NaN,NaN,NaN,NaN,NaN,NaN,NaN,NaN,NaN,NaN,NaN,Maricopa,NaN
Aim Higher College Prep Academy,"Phoenix, AZ",Public,85040,Y,70,42,23,26,9,62,18,14,7,NaN,NaN,98.65,10,1,1,1,98,1,2,1,41,59,NaN,NaN,NaN,18,18:1,NaN,Maricopa,NaN
Arcadia High School,"Phoenix, AZ",Public,85018,Y,1603,16,23,38,22,26,31,22,22,92.92,1.54,98.46,19.8,3,2,4,34,1,55,1,52,48,NaN,NaN,NaN,22,22:1,9-12,Maricopa,NaN
Arizona Call-a-teen Center For Excellence,"Phoenix, AZ",Public,NaN,NaN,NaN,NaN,NaN,NaN,NaN,NaN,NaN,NaN,NaN,NaN,NaN,NaN,NaN,NaN,NaN,NaN,NaN,NaN,NaN,NaN,NaN,NaN,NaN,NaN,NaN,NaN,NaN,NaN,Maricopa,NaN
Arizona Collegiate High School,"Phoenix, AZ",Public,85017,N,117,45,4,0,0,92,8,0,0,48.31,20.93,77.86,35,1,1,6,90,1,3,1,53,47,NaN,NaN,NaN,34,34:1,NaN,Maricopa,NaN
Arizona Conservatory For Arts And Academics,"Phoenix, AZ",Public,85053,NaN,180,58,19,17,6,54,27,13,6,NaN,NaN,98.22,NaN,4,1,16,35,1,36,8,38,62,NaN,NaN,NaN,NaN,NaN,NaN,Maricopa,NaN
Arizona Cultural Academy & College Prep,"Phoenix, AZ",Private,NaN,NaN,NaN,NaN,NaN,NaN,NaN,NaN,NaN,NaN,NaN,NaN,NaN,NaN,NaN,1,25,32,1,1,40,2,NaN,NAN,NaN,NaN,NaN,NaN,NaN,NaN,Maricopa,NaN
Arizona Insight Academy,"Phoenix, AZ",Public,85305,Y,1098,56,25,17,2,74,21,4,0,55.56,11.95,92.86,24.6,1,1,10,34,1,45,7,47,53,NaN,NaN,NaN,27,27:1,7-12,Maricopa,NaN
"Arizona Lutheran Academy
","Phoenix, AZ",Private,NaN,NaN,NaN,NaN,NaN,NaN,NaN,NaN,NaN,NaN,NaN,NaN,NaN,NaN,NaN,7,7,5,21,1,59,1,NaN,NaN,NaN,NaN,NaN,NaN,NaN,NaN,Maricopa,NaN
"Arizona Preparatory Academy
","Phoenix, AZ",Public,85037,NaN,1127,81,14,5,0,81,15,3,0,8.55,24.79,36.27,35,6,1,9,53,1,32,1,42,58,NaN,NaN,NaN,NaN,69:1,NaN,Maricopa,NaN
"Arizona School For The Arts
","Phoenix, AZ",Public,85004,Y,812,17,21,42,20,33,25,26,16,95.12,1.33,97.05,20,1,3,5,32,1,54,6,30,70,NaN,NaN,NaN,35,13:1,NaN,Maricopa,NaN
Arizona Virtual Academy,"Phoenix, AZ",Public,85004,Y,5110,52,21,22,4,74,16,8,2,57.22,8.83,99.36,8.6,1,1,7,35,2,46,8,49,51,NaN,NaN,NaN,NaN,37:7,NaN,Maricopa,NaN
Asdb/Phoenix Day School,"Phoenix, AZ",Public,NaN,NaN,NaN,NaN,NaN,NaN,NaN,NaN,NaN,NaN,NaN,NaN,NaN,NaN,NaN,NaN,NaN,NaN,NaN,NaN,NaN,NaN,NaN,NaN,NaN,NaN,NaN,NaN,NaN,NaN,Maricopa,NaN
Aspc-phoenix/globe,"Phoenix, AZ",Public,NaN,NaN,NaN,NaN,NaN,NaN,NaN,NaN,NaN,NaN,NaN,NaN,NaN,NaN,NaN,NaN,NaN,NaN,NaN,NaN,NaN,NaN,NaN,NaN,NaN,NaN,NaN,NaN,NaN,NaN,Maricopa,NaN
Asu Preparatory Academy- Phoenix Elementary,"Phoenix, AZ",Public,85006,Y,432,61,16,18,5,52,26,19,3,53.7,NaN,100,NaN,1,1,10,82,1,5,2,52,48,NaN,NaN,NaN,NaN,16:1,KG-4,Maricopa,NaN
Asu Preparatory Academy- Phoenix High School,"Phoenix, AZ",Public,85006,Y,359,28,45,22,5,22,46,22,9,89.29,6.09,98.31,18.1,1,2,8,82,1,5,1,52,48,NaN,NaN,NaN,34,12:1,9-12,Maricopa,NaN
"Barry Goldwater High School
","Phoenix, AZ",Public,85027,Y,1640,40,24,25,11,44,31,17,8,87.5,3.03,98.8,18.7,2,4,8,41,2,41,2,53,47,NaN,NaN,NaN,NaN,21:1,7-12,Maricopa,NaN
"Basis Ahwatukee
","Phoenix, AZ",Public,85004,NaN,690,7,11,50,31,4,10,35,52,100,0,99.85,20,1,56,7,7,1,24,5,52,48,NaN,NaN,NaN,NaN,12:1,9-12,Maricopa,NaN
"Basis Phoenix
","Phoenix, AZ",Public,85028,NaN,745,4,11,56,30,5,12,30,54,98.85,0,100,20,1,51,3,8,1,33,4,49,51,NaN,NaN,NaN,NaN,14:1,5-12,Maricopa,NaN
"Basis Phoenix Central Primary
","Phoenix, AZ",Public,85028,NaN,427,24,17,43,16,27,23,34,16,NaN,NaN,100,NaN,23,1,13,29,1,27,8,50,50,NaN,NaN,NaN,NaN,12:1,0-5,Maricopa,NaN
"Bostrom Alternative Center
","Phoenix, AZ",Public,85017,NaN,289,94,4,3,0,88,12,0,0,13.86,14.14,78.67,35,1,1,7,84,1,3,2,60,40,NaN,NaN,NaN,NaN,10:1,9-12,Maricopa,NaN
Brophy College Preparatory,"Phoenix, AZ",Private,85004,NaN,NaN,NaN,NaN,NaN,NaN,NaN,NaN,NaN,NaN,NaN,NaN,NaN,NaN,1,5,3,22,1,55,14,NaN,NaN,NaN,NaN,NaN,NaN,NaN,NaN,Maricopa,NaN
"Bourgade Catholic High School
","Phoenix, AZ",Private,85017,NaN,NaN,NaN,NaN,NaN,NaN,NaN,NaN,NaN,NaN,NaN,NaN,NaN,NaN,2,3,1,68,1,12,14,NaN,NaN,NaN,NaN,NaN,NaN,NaN,NaN,Maricopa,NaN
"Camelback High School
","Phoenix, AZ",Public,85082,Y,2241,57,26,14,3,64,27,9,1,71.94,3.87,98.13,16,1,1,10,76,1,7,2,51,49,NaN,NaN,NaN,NaN,19:1,9-12,Maricopa,NaN
"Career Success High School - Glendale
","Phoenix, AZ",Public,85017,NaN,NaN,NaN,NaN,NaN,NaN,NaN,NaN,NaN,NaN,NaN,NaN,NaN,NaN,NaN,NaN,NaN,NaN,NaN,NaN,NaN,NaN,NaN,NaN,NaN,NaN,NaN,NaN,NaN,NaN,NaN
"Career Success High School - Main Campus
","Phoenix, AZ",Public,85048,NaN,NaN,NaN,NaN,NaN,NaN,NaN,NaN,NaN,NaN,NaN,NaN,NaN,NaN,NaN,NaN,NaN,NaN,NaN,NaN,NaN,NaN,NaN,NaN,NaN,NaN,NaN,NaN,NaN,NaN,NaN
"Career Success Jr/sr High School - North Phoenix
","Phoenix, AZ",Public,85024,NaN,NaN,NaN,NaN,NaN,NaN,NaN,NaN,NaN,NaN,NaN,NaN,NaN,NaN,NaN,NaN,NaN,NaN,NaN,NaN,NaN,NaN,NaN,NaN,NaN,NaN,NaN,NaN,NaN,NaN,NaN
"Carl Hayden High School
","Phoenix, AZ",Public,85081,NaN,2218,67,21,11,1,62,30,6,2,72.01,5.31,97.06,13.06,1,1,3,94,1,2,1,54,46,NaN,NaN,NaN,NaN,19:1,9-12,Maricopa,NaN
"Central High School
","Phoenix, AZ",Public,85012,NaN,1901,57,24,18,2,61,27,9,3,70.71,6.12,96.18,16.1,7,3,15,64,1,8,3,49,51,NaN,NaN,NaN,NaN,17:1,9-12,Maricopa,NaN
"Children First Academy - Phoenix
","Phoenix, AZ",Public,85017,NaN,NaN,NaN,NaN,NaN,NaN,NaN,NaN,NaN,NaN,NaN,NaN,NaN,NaN,NaN,NaN,NaN,NaN,NaN,NaN,NaN,NaN,NaN,NaN,NaN,NaN,NaN,NaN,NaN,NaN,NaN
Humanities and Science High School,"Tempe, AZ",Public ,85282,NaN,10,NaN,NaN,NaN,NaN,NaN,NaN,NaN,NaN,NaN,NaN,NaN,NaN,0,1,2,6,0,1,0,4,6,NaN,NaN,NaN,1,NaN,9-12,Maricopa,NaN
Humanities and Sciences Academy Arizona,"Phoenix, AZ",Public ,85282,NaN,31,NaN,NaN,NaN,NaN,NaN,NaN,NaN,NaN,NaN,NaN,NaN,NaN,2,0,5,21,0,2,1,19,12,NaN,NaN,NaN,NaN,NaN,11-12,Maricopa,NaN
Wickenburg Virtual Academy,"Wickenburg, AZ",Public ,85390,NaN,78,54,27,20,14,66,21,14,0,11.76,12.08,91.6,NaN,0,0,1,29,0,46,2,34,44,NaN,NaN,NaN,3.6,21.67,KG-12,Maricopa,NaN
Wickenburg High School,"Wickenburg, AZ",Public ,85390,NaN,474,39,24,25,8,49,24,21,6,80.87,4.38,91.77,19.4,4,3,10,196,0,240,7,235,225,156,27,87,26.26,17.52,6-12,Maricopa,"13,261-17,680"
Wickenburg Christian Academy,"Wickenburg, AZ",Private,85390,NaN,155,NaN,NaN,NaN,NaN,NaN,NaN,NaN,NaN,NaN,NaN,NaN,NaN,1,2,0,35,0,117,0,57,69,NaN,NaN,NaN,23.4,6.6,KG-12,Maricopa,NaN
West-Mec - Wickenburg High School,"Wickenburg, AZ",Public ,85390,NaN,3,NaN,NaN,NaN,NaN,NaN,NaN,NaN,NaN,NaN,NaN,NaN,NaN,0,0,0,0,0,3,0,0,3,NaN,NaN,NaN,NaN,NaN,9-12,Maricopa,NaN
West-Mec - Shadow Ridge High School,"Waddell, AZ",Public ,85355,NaN,0,NaN,NaN,NaN,NaN,NaN,NaN,NaN,NaN,NaN,NaN,NaN,NaN,0,0,0,0,0,0,0,0,0,NaN,NaN,NaN,NaN,NaN,9-13,Maricopa,NaN
Tonopah Valley High School,"Tonopah, AZ",Public ,85354,NaN,864,51,30,18,1,53,31,14,1,92.68,1.57,99.52,18.4,13,4,47,503,3,278,17,467,398,371,77,176,38,22.76,7-12,Maricopa,NaN
West-Mec - Tolleson Union High School,"Tolleson, AZ",Public ,85353,NaN,7,NaN,NaN,NaN,NaN,NaN,NaN,NaN,NaN,NaN,NaN,NaN,NaN,0,1,1,4,0,1,0,5,2,NaN,NaN,NaN,NaN,NaN,9-12,Maricopa,NaN
West-Mec - Sierra Linda High School,"Tolleson, AZ",Public ,85353,NaN,4,NaN,NaN,NaN,NaN,NaN,NaN,NaN,NaN,NaN,NaN,NaN,NaN,0,0,1,2,0,1,0,2,2,NaN,NaN,NaN,NaN,NaN,9-12,Maricopa,NaN
University High School,"Tolleson, AZ",Public ,85353,NaN,379,0,11,56,33,1,26,36,37,100,0.45,99.73,20,0,53,42,240,1,31,12,149,230,NaN,NaN,NaN,17,22.29,9-12,Maricopa,27
Tolleson Union High School,"Tolleson, AZ",Public ,85353,Yes,2256,49,29,19,3,44,34,18,3,91.81,2.4,97.06,16.6,27,29,214,1861,8,78,39,1146,1110,970,270,538,97.8,23.07,9-12,Maricopa,9882
Sierra Linda High School,"Tolleson, AZ",Public ,85353,Yes,1976,57,26,15,2,61,27,10,2,83.11,4.21,97.05,14.8,18,17,182,1649,12,71,26,1017,958,928,217,491,80.8,24.44,9-12,Maricopa,"13,260"
Valley Preparatory Academy,"Tempe, AZ",Public ,85282,NaN,24,NaN,NaN,NaN,NaN,NaN,NaN,NaN,NaN,NaN,34.88,80,NaN,0,0,2,9,0,12,0,13,10,24,0,0,NaN,NaN,9-12,Maricopa,NaN
The Early Career Academy,"Tempe, AZ",Public ,85248,No,22,NaN,NaN,NaN,NaN,NaN,NaN,NaN,NaN,NaN,NaN,NaN,NaN,3,0,3,5,1,9,1,17,5,NaN,NaN,NaN,NaN,NaN,11-12,Maricopa,NaN
The Aces-Tempe,"Tempe, AZ",Private,85281,No,130,NaN,NaN,NaN,NaN,NaN,NaN,NaN,NaN,NaN,NaN,NaN,NaN,11,3,30,43,0,40,3,120,10,NaN,NaN,NaN,NaN,9,KG-12,Maricopa,NaN
Tempe Preparatory Academy,"Tempe, AZ",Public ,85283,Yes,443,8,12,50,31,13,26,33,28,89.66,NaN,99.3,20,5,31,7,123,2,237,38,208,235,NaN,NaN,NaN,NaN,NaN,6-12,Maricopa,1377
Tempe High School,"Tempe, AZ",Public ,85281,Yes,1582,33,37,25,5,44,32,20,4,79.94,3.91,96.79,17.1,58,17,191,1133,32,110,43,764,820,696,110,483,79.6,19.9,9-12,Maricopa,12505
Tapbi,"Tempe, AZ",Public ,85283,NaN,198,28,25,33,14,36,31,19,13,3.77,2.81,100,NaN,10,8,31,85,2,49,14,89,110,NaN,NaN,NaN,7.4,26.89,9-12,Maricopa,"13,261-17,680"
Student Choice High School,"Tempe, AZ",Public ,85281,NaN,1811,NaN,NaN,NaN,NaN,NaN,NaN,NaN,NaN,NaN,NaN,NaN,NaN,62,14,186,1228,5,311,5,895,916,NaN,NaN,NaN,NaN,NaN,9-12,Maricopa,"13,261-17,680"
Pinnacle Virtual High School,"Tempe, AZ",Public ,85282,NaN,330,NaN,NaN,NaN,NaN,NaN,NaN,NaN,NaN,NaN,NaN,NaN,NaN,22,0,37,152,3,110,6,135,195,NaN,NaN,NaN,NaN,NaN,6-12,Maricopa,NaN
Pinnacle High School - Tempe,"Tempe, AZ",Public ,85282,NaN,25,NaN,NaN,NaN,NaN,NaN,NaN,NaN,NaN,NaN,18,NaN,NaN,0,1,2,20,0,0,2,16,9,NaN,NaN,NaN,NaN,NaN,9-12,Maricopa,NaN
Pinnacle Charter High School,"Tempe, AZ",Public ,85283,No,45,NaN,NaN,NaN,NaN,NaN,NaN,NaN,NaN,NaN,28.75,NaN,NaN,0,0,0,45,0,0,0,21,24,NaN,NaN,NaN,NaN,NaN,9-12,Maricopa,NaN
New School for the Arts,"Tempe, AZ",Public ,85281,No,204,18,38,36,7,38,22,33,7,89.19,2.58,99.47,0,7,3,8,47,1,122,15,62,141,NaN,NaN,NaN,NaN,NaN,9-12,Maricopa,"13,261-17,680"
Mcclintock High School,"Tempe, AZ",Public ,85283,Yes,1947,32,26,24,18,33,29,22,17,84.11,3.66,97.73,19,89,45,268,945,34,469,99,964,985,604,97,468,89.6,21.75,9-12,Maricopa,6840
Marcos De Niza High School,"Tempe, AZ",Public ,85282,NaN,1517,37,28,25,9,45,34,15,6,77.05,3.92,95.23,16.9,177,35,145,827,10,262,63,772,747,501,106,344,81.83,18.56,9-12,Maricopa,9884
James Madison Preparatory School,"Tempe, AZ",Public ,85283,NaN,156,32,24,32,13,59,23,13,5,77.78,NaN,98.6,0,3,4,8,36,3,98,4,83,73,NaN,NaN,NaN,NaN,NaN,6-12,Maricopa,8841
International Commerce High School - Tempe,"Tempe, AZ",Public ,85282,NaN,253,61,33,5,1,64,26,9,1,40.12,17.23,81.38,34.6,16,0,24,163,3,33,14,136,117,NaN,NaN,NaN,NaN,NaN,9-12,Maricopa,NaN
Integrity Education Centre,"Tempe, AZ",Public ,85281,No,52,NaN,NaN,NaN,NaN,NaN,NaN,NaN,NaN,NaN,NaN,NaN,NaN,2,0,4,11,0,32,3,32,20,10,3,NaN,NaN,NaN,1-12,Maricopa,NaN
Grand Canyon College Preparatory Charter School,"Tempe, AZ",Public ,85283,NaN,67,NaN,NaN,NaN,NaN,NaN,NaN,NaN,NaN,NaN,NaN,NaN,NaN,2,4,9,14,0,38,0,41,26,NaN,NaN,NaN,NaN,NaN,6-12,Maricopa,NaN
Edoptions Hs Learning Center,"Tempe, AZ",Public ,85282,Yes,542,63,25,12,0,72,20,6,2,12.94,17.73,63,35,3,7,23,207,38,248,5,254,277,NaN,NaN,NaN,NaN,NaN,9-12,Maricopa,NaN
Corona Del Sol High School,"Tempe, AZ",Public ,85284,Yes,2730,14,18,39,29,16,25,25,34,93.93,0.84,98.5,20,69,188,141,815,13,1329,178,1369,1364,273,81,161,120.6,22.66,9-12,Maricopa,4167
Compadre High School,"Tempe, AZ",Public ,85283,NaN,411,NaN,NaN,NaN,NaN,NaN,NaN,NaN,NaN,NaN,NaN,NaN,NaN,57,2,68,212,2,63,7,243,168,24,3,NaN,25,16.4,9-12,Maricopa,NaN
Chrysalis Academy Day School for Children with Aut,"Tempe, AZ",Private,85283,NaN,35,NaN,NaN,NaN,NaN,NaN,NaN,NaN,NaN,NaN,NaN,NaN,NaN,1,1,3,4,25,0,1,NaN,NaN,NaN,NaN,NaN,NaN,NaN,KG-12,Maricopa,NaN
Willow Canyon High School,"Surprise, AZ",Public ,85374,No,1787,27,26,33,14,30,30,28,12,94.69,0.37,99.83,17.8,20,46,137,574,11,878,121,902,885,428,142,218,76.2,23.45,7-12,Maricopa,5187
West-Mec - Willow Canyon High School,"Surprise, AZ",Public ,85374,NaN,3,NaN,NaN,NaN,NaN,NaN,NaN,NaN,NaN,NaN,NaN,NaN,NaN,0,0,0,0,0,3,0,0,3,NaN,NaN,NaN,NaN,NaN,9-12,Maricopa,NaN
West-Mec - Valley Vista High School,"Surprise, AZ",Public ,85374,NaN,2,NaN,NaN,NaN,NaN,NaN,NaN,NaN,NaN,NaN,NaN,NaN,NaN,0,0,0,0,0,2,0,1,1,NaN,NaN,NaN,NaN,NaN,9-12,Maricopa,NaN
E-Institute at Surprise,"Surprise, AZ",Public ,85374,NaN,187,NaN,NaN,NaN,NaN,NaN,NaN,NaN,NaN,NaN,NaN,NaN,NaN,5,3,10,99,1,63,6,94,93,84,22,NaN,NaN,NaN,9-12,Maricopa,NaN
Imagine Prep Surprise,"Surprise, AZ",Public ,85379,NaN,290,30,27,33,10,45,28,20,6,96.97,2.28,99.65,15.1,0,5,21,98,0,145,21,153,137,63,29,30,NaN,NaN,9-12,Maricopa,12785
Valley Vista High School,"Surprise, AZ",Public ,85374,Yes,2451,29,26,31,14,33,34,22,10,93.6,2.36,99.5,15.3,23,32,223,1185,8,842,151,1224,1240,837,246,421,102.2,24.11,7-12,Maricopa,6227
Dysart Ischool,"Surprise, AZ",Public ,85374,NaN,107,21,22,36,22,26,30,25,18,69.33,0.05,NaN,0,1,1,3,50,0,45,7,41,65,NaN,NaN,NaN,13,8.15,7-12,Maricopa,11246
Arizona Charter Academy,"Surprise, AZ",Public ,85374,NaN,978,44,20,28,9,36,22,28,14,NaN,NaN,99.69,NaN,0,7,92,667,2,167,47,496,486,540,108,289,NaN,NaN,KG-8,Maricopa,NaN
West-Mec - Horizon High School,"Scottsdale, AZ",Public,85254,Yes,13,NaN,NaN,NaN,NaN,NaN,NaN,NaN,NaN,NaN,NaN,NaN,NaN,0,0,2,0,0,11,0,7,6,NaN,NaN,NaN,NaN,NaN,9-12,Maricopa,NaN
Ville De Marie Academy,"Scottsdale, AZ",Private,85257,No,222,NaN,NaN,NaN,NaN,NaN,NaN,NaN,NaN,NaN,NaN,NaN,NaN,4,6,4,10,6,174,18,NaN,NaN,NaN,NaN,NaN,15.6,14.2,KG-12,Maricopa,NaN
The New Foundation-Marion Burton School,"Scottsdale, AZ",Private,85257,NaN,40,NaN,NaN,NaN,NaN,NaN,NaN,NaN,NaN,NaN,NaN,NaN,NaN,3,0,2,14,0,21,0,28,12,NaN,NaN,NaN,5,7,6-12,Maricopa,NaN
Sunrise Middle School,"Scottsdale, AZ",Public,85254,Yes,433,29,15,34,22,47,14,14,25,NaN,NaN,99.53,NaN,9,18,19,160,1,200,26,226,207,116,17,82,30.76,14.08,7-8,Maricopa,NaN
Scottsdale Online Learning,"Scottsdale, AZ",Public,85257,NaN,224,26,23,31,20,57,17,14,11,72.29,10.88,94.97,NaN,9,9,9,47,0,142,8,101,123,NaN,NaN,NaN,24,9.33,KG-12,Maricopa,"13,261-17,680"
Salt River High School,"Scottsdale, AZ",Public,85256,NaN,217,NaN,NaN,NaN,NaN,NaN,NaN,NaN,NaN,NaN,NaN,NaN,NaN,185,0,0,31,0,0,1,104,113,89,3,NaN,NaN,NaN,7-12,Maricopa,NaN
Salt River Accelerated Learning Academy,"Scottsdale, AZ",Public,85256,NaN,74,81,5,14,0,90,10,0,0,9.52,36.97,79.69,31.1,63,0,0,11,0,0,0,45,29,25,0,23,NaN,NaN,9-12,Maricopa,NaN
Saguaro High School,"Scottsdale, AZ",Public,85250,Y,1466,19,22,34,25,21,24,28,27,91,0.99,99.3,19.9,64,46,101,339,7,861,48,732,734,278,87,123,69,21.31,9-12,Maricopa,2683
Notre Dame Preparatory,"Scottsdale, AZ",Private,85260,NaN,863,NaN,NaN,NaN,NaN,NaN,NaN,NaN,NaN,NaN,NaN,NaN,NaN,2,23,10,94,8,721,5,NaN,NaN,NaN,NaN,NaN,66,13,9-12,Maricopa,NaN
Horizon High School,"Scottsdale, AZ",Public,85254,NaN,1912,8,20,41,31,16,27,30,27,94.81,0.99,98.8,18.1,17,45,38,275,8,1412,110,946,959,95,38,65,84,22.7,7-12,Maricopa,4862
Great Hearts Academies - Scottsdale Prep,"Scottsdale, AZ",Public,85260,NaN,875,9,20,52,20,14,24,31,30,96,7,99.76,19.9,1,136,5,94,1,596,42,421,454,NaN,NaN,NaN,NaN,NaN,5-12,Maricopa,3532
Great Hearts Academies - Cicero Prep,"Scottsdale, AZ",Public,85258,NaN,502,16,23,51,10,29,22,31,19,100,6.5,100,17.6,7,18,15,92,1,326,43,234,268,NaN,NaN,NaN,NaN,NaN,6-12,Maricopa,NaN
Gateway Academy,"Scottsdale, AZ",Private,85258,NaN,57,NaN,NaN,NaN,NaN,NaN,NaN,NaN,NaN,NaN,NaN,NaN,NaN,2,2,3,4,0,43,3,50,7,NaN,NaN,NaN,12,4,1-12,Maricopa,NaN
Foothills Academy Connected,"Scottsdale, AZ",Public,85266,NaN,13,NaN,NaN,NaN,NaN,NaN,NaN,NaN,NaN,NaN,NaN,NaN,NaN,0,0,0,0,0,13,0,4,9,NaN,NaN,NaN,NaN,NaN,7-12,Maricopa,NaN
Desert Mountain High School,"Scottsdale, AZ",Public,85259,Y,1880,7,18,38,37,14,19,30,37,95.27,1,98.7,20,18,218,60,176,6,1353,49,935,945,112,37,67,87,21.58,9-12,Maricopa,1215
Coronado High School,"Scottsdale, AZ",Public,85257,NaN,740,40,29,25,6,43,31,22,4,86.36,2.39,98.59,16.8,61,8,44,482,1,130,14,374,366,377,96,165,49,15.16,9-12,Maricopa,11001
Chaparral High School,"Scottsdale, AZ",Public,85253,Y,2038,9,25,41,25,14,25,27,34,95.65,0.47,99.01,20,7,137,53,223,7,1545,66,993,1045,101,20,64,90.4,22.54,9-12,Maricopa,2385
Cactus Shadows High School,"Scottsdale, AZ",Public,85266,NaN,1714,12,24,44,20,19,24,31,26,92.68,1.38,99.29,18.5,6,44,23,119,5,1507,10,861,853,115,21,NaN,66,25.9,9-12,Maricopa,2093
Brightmont Academy,"Scottsdale, AZ",Private,85254,NaN,51,NaN,NaN,NaN,NaN,NaN,NaN,NaN,NaN,NaN,NaN,NaN,NaN,0,0,2,4,0,45,0,NaN,NaN,NaN,NaN,NaN,12.8,4,5-12,Maricopa,NaN
Bella Vista College Prepratory School,"Scottsdale, AZ",Private,85266,NaN,79,NaN,NaN,NaN,NaN,NaN,NaN,NaN,NaN,NaN,NaN,NaN,NaN,0,4,17,5,0,53,0,NaN,NaN,NaN,NaN,NaN,9,8.9,7-12,Maricopa,NaN
Basis Scottsdale,"Scottsdale, AZ",Public,85259,Y,993,5,9,53,33,3,11,30,56,98.72,0,100,20,2,594,19,60,2,254,63,528,466,NaN,NaN,NaN,NaN,NaN,4-12,Maricopa,20
Arizona International Academy,"Scottsdale, AZ",Private,85254,NaN,10,NaN,NaN,NaN,NaN,NaN,NaN,NaN,NaN,NaN,NaN,NaN,NaN,0,6,1,0,0,3,0,6,4,NaN,NaN,NaN,1,6,4-9,Maricopa,NaN
Willie & Coy Payne Junior High School,"Queen Creek, AZ",Public,85142,NaN,1143,NaN,NaN,NaN,NaN,NaN,NaN,NaN,NaN,NaN,NaN,NaN,NaN,19,43,42,214,3,768,54,611,532,91,34,36,55.76,20.5,7-8,Maricopa,NaN
Sossaman Middle School,"Queen Creek, AZ",Public,85142,NaN,1040,21,20,38,21,26,26,25,34,NaN,NaN,100,NaN,10,24,35,205,2,699,68,562,481,93,41,52,56,18.68,7-8,Maricopa,NaN
Queen Creek Virtual Academy,"Queen Creek, AZ",Public,85142,NaN,257,40,25,33,3,59,28,11,2,93.46,1.75,99.41,10.1,3,7,9,63,0,160,15,112,145,NaN,NaN,NaN,NaN,NaN,KG-12,Maricopa,NaN
Queen Creek High School,"Queen Creek, AZ",Public,85142,NaN,2225,14,27,40,19,22,27,29,21,94.49,2.22,99.86,18.9,22,44,64,583,8,1422,90,1114,1119,223,111,108,99.8,22.37,9-12,Maricopa,3993
Heritage Academy Queen Creek,"Queen Creek, AZ",Public,85142,NaN,455,NaN,NaN,NaN,NaN,NaN,NaN,NaN,NaN,NaN,NaN,NaN,NaN,NaN,NaN,NaN,NaN,NaN,NaN,NaN,NaN,NaN,NaN,NaN,NaN,NaN,NaN,6-12,Maricopa,6806
Dr. Camille Casteel High School,"Queen Creek, AZ",Public,85142,NaN,3140,20,25,40,15,28,25,26,20,93.62,1.25,99.68,17.2,14,74,92,589,8,2203,160,1536,1604,251,125,119,151,20.78,7-12,Maricopa,9964
Canyon State Academy,"Queen Creek, AZ",Private,85142,NaN,253,NaN,NaN,NaN,NaN,NaN,NaN,NaN,NaN,NaN,NaN,NaN,NaN,28,0,63,23,1,26,112,NaN,NaN,NaN,NaN,NaN,22,11.3,2-12,Maricopa,NaN
Benjamin Franklin High School,"Queen Creek, AZ",Public,85142,NaN,1235,24,23,38,16,30,22,27,21,95.6,1.53,99.92,17.9,4,33,31,208,3,896,60,624,611,NaN,NaN,NaN,NaN,NaN,7-12,Maricopa,NaN
American Leadership Academy - Queen Creek,"Queen Creek, AZ",Public,85142,NaN,2371,NaN,NaN,NaN,NaN,NaN,NaN,NaN,NaN,NaN,NaN,NaN,NaN,20,15,45,437,4,1763,87,1199,1172,NaN,NaN,NaN,NaN,NaN,NaN,Maricopa,5799
Yeshiva High School of Arizona,"Phoenix, AZ",Private,85020,NaN,31,NaN,NaN,NaN,NaN,NaN,NaN,NaN,NaN,NaN,NaN,NaN,NaN,0,0,0,0,0,31,0,NaN,NaN,NaN,NaN,NaN,9,3.5,9-12,Maricopa,NaN
Xavier College Preparatory,"Phoenix, AZ",Private,85012,NaN,1122,NaN,NaN,NaN,NaN,NaN,NaN,NaN,NaN,NaN,NaN,NaN,NaN,12,46,25,241,6,717,75,NaN,NaN,NaN,NaN,NaN,79,14.2,9-12,Maricopa,NaN
Westland School,"Phoenix, AZ",Public,85033,NaN,216,59,20,20,1,75,18,5,2,93.33,13.4,99.07,17,4,0,25,131,7,32,17,112,104,164,17,83,NaN,NaN,KG-12,Maricopa,NaN
Western School of Science and Technology,"Phoenix, AZ",Public,85033,NaN,522,60,22,15,2,72,19,7,2,94.81,0.98,100,19.4,2,0,7,509,0,4,0,245,277,370,88,101,NaN,NaN,7-12,Maricopa,4838
West-Mec - Washington High School,"Phoenix, AZ",Public,85021,NaN,2,NaN,NaN,NaN,NaN,NaN,NaN,NaN,NaN,NaN,NaN,NaN,NaN,0,0,2,0,0,0,0,0,2,NaN,NaN,NaN,NaN,NaN,9-12,Maricopa,NaN
West-Mec - Tonopah Valley High School,"Phoenix, AZ",Public,85354,NaN,10,NaN,NaN,NaN,NaN,NaN,NaN,NaN,NaN,NaN,NaN,NaN,NaN,0,0,1,0,0,8,1,2,8,NaN,NaN,NaN,NaN,NaN,7-12,Maricopa,NaN
West-Mec - Thunderbird High School,"Phoenix, AZ",Public,85023,NaN,2,NaN,NaN,NaN,NaN,NaN,NaN,NaN,NaN,NaN,NaN,NaN,NaN,0,0,0,0,1,1,0,2,0,NaN,NaN,NaN,NaN,NaN,9-12,Maricopa,NaN
West-Mec - Sunnyslope High School,"Phoenix, AZ",Public,85021,NaN,5,NaN,NaN,NaN,NaN,NaN,NaN,NaN,NaN,NaN,NaN,NaN,NaN,0,0,2,0,0,3,0,2,3,NaN,NaN,NaN,NaN,NaN,9-12,Maricopa,NaN
Carl Hayden High School,"Phoenix, AZ",Public,85009,NaN,2218,67,21,11,1,62,30,6,2,72.01,5.31,97.06,13.6,13,0,86,2079,0,28,11,1234,983,1884,177,573,115,19.28,9-12,Maricopa,12116
Central High School,"Phoenix, AZ",Public,85012,NaN,1901,57,24,18,2,61,27,9,3,70.71,6.12,96.18,16.1,119,44,290,1280,3,116,49,955,946,1672,76,611,115.5,16.46,9-12,Maricopa,11309
Children First Academy - Phoenix,"Phoenix, AZ",Public,85204,,100,70,17,12,0,84,9,5,2,NaN,NaN,99,,0,0,18,80,0,2,0,47,53,72,0,84,NaN,NaN,KG-8,Maricopa,NaN
Cornerstone Charter School,"Phoenix, AZ",Public,85021,,150,80,17,3,0,90,7,3,0,20.69,24.6,87.05,31.7,2,0,21,106,0,15,6,79,71,124,13,63,NaN,NaN,9-12,Maricopa,NaN
Cortez High School,"Phoenix, AZ",Public,85051,Yes,1104,38,32,26,5,40,36,20,3,84.1,1.5,99.01,19.6,51,60,136,668,2,155,32,569,535,684,110,396,53.8,20.52,9-12,Maricopa,7914
Crestview College Preparatory High School,"Phoenix, AZ",Public,85032,Yes,246,77,21,2,0,86,14,0,0,11.25,29.88,87.23,35,8,0,21,190,2,21,4,140,106,150,7,91,NaN,NaN,9-12,Maricopa,NaN
Crown Point High School,"Phoenix, AZ",Public,85301,Nan,35,73,18,9,0,75,17,0,8,22.22,11.29,65,35,0,0,2,33,0,0,0,24,11,NaN,NaN,NaN,NaN,NaN,9-12,Maricopa,NaN
Cyber High School,"Phoenix, AZ",Public,85037,NaN,NaN,NaN,NaN,NaN,NaN,NaN,NaN,NaN,NaN,NaN,NaN,NaN,NaN,NaN,NaN,NaN,NaN,NaN,NaN,NaN,NaN,NaN,NaN,NaN,NaN,NaN,NaN,NaN,Maricopa,NaN
Deer Valley Middle School,"Phoenix, AZ",Public,85027,No,538,58,18,19,4,79,11,8,2,NaN,NaN,100,NaN,19,6,47,256,4,183,22,263,274,279,69,149,57.2,9.39,7-8,Maricopa,317
Desert Foothills Middle School,"Phoenix, AZ",Public,85053,No,632,43,22,28,7,64,16,14,6,NaN,NaN,100,NaN,15,14,56,287,1,238,21,313,319,290,75,175,37.5,16.85,7-8,Maricopa,428
Desert Garden Montessori,"Phoenix, AZ",Private,85044,NaN,NaN,NaN,NaN,NaN,NaN,NaN,NaN,NaN,NaN,NaN,NaN,NaN,NaN,10,6,7,28,93,5,29,NaN,NaN,NaN,NaN,NaN,43.4,4.1,PK-12,Maricopa,NaN
Desert Marigold School,"Phoenix, AZ",Public,85042,No,303,40,20,34,5,60,30,9,1,NaN,NaN,100,12.5,0,3,12,70,0,184,34,154,149,NaN,NaN,NaN,NaN,NaN,KG-12,Maricopa,NaN
Desert Valleys Region,"Phoenix, AZ",Public,85021,NaN,NaN,NaN,NaN,NaN,NaN,NaN,NaN,NaN,NaN,NaN,NaN,NaN,NaN,NaN,NaN,NaN,NaN,NaN,NaN,NaN,NaN,NaN,NaN,NaN,NaN,NaN,NaN,PK-12,Maricopa,NaN
Desert Vista High School,"Phoenix, AZ",Public,85048,No,2953,7,19,46,28,13,23,32,32,94,1.34,99.11,20,59,197,202,742,7,1546,211,1530,1434,207,88,155,126.6,23.41,9-12,Maricopa,2801
Desert Voices Oral Learning Center,"Phoenix, AZ",Private,85028,NaN,NaN,NaN,NaN,NaN,NaN,NaN,NaN,NaN,NaN,NaN,NaN,NaN,NaN,0,0,0,0,0,2,0,NaN,NaN,NaN,NaN,NaN,1.3,1.5,PK-KG,Maricopa,NaN
Durango Transitional Learning Center,"Phoenix, AZ",Public,85009,NaN,NaN,NaN,NaN,NaN,NaN,NaN,NaN,NaN,NaN,NaN,NaN,NaN,NaN,NaN,NaN,NaN,NaN,NaN,NaN,NaN,NaN,NaN,NaN,NaN,NaN,NaN,NaN,NaN,Maricopa,NaN
E institute At Metro,"Phoenix, AZ",Public,85051,NaN,NaN,NaN,NaN,NaN,NaN,NaN,NaN,NaN,NaN,NaN,NaN,NaN,NaN,NaN,NaN,NaN,NaN,NaN,NaN,NaN,NaN,NaN,NaN,NaN,NaN,NaN,NaN,NaN,Maricopa,NaN
E Institute At Union Hills,"Phoenix, AZ",Public,85308,NaN,NaN,NaN,NaN,NaN,NaN,NaN,NaN,NaN,NaN,NaN,NaN,NaN,NaN,NaN,NaN,NaN,NaN,NaN,NaN,NaN,NaN,NaN,NaN,NaN,NaN,NaN,NaN,NaN,Maricopa,NaN
Franklin Police And Fire High School,"Phoenix, AZ",Public,85007,No,321,28,38,29,5,33,40,21,7,100,0,99.68,20,4,2,3,301,0,10,1,161,160,234,51,82,18.6,17.26,9-12,Maricopa,4163
Gateway Early College High School,"Phoenix, AZ",Public,85034,No,333,32,37,25,6,39,36,22,3,98.36,0.29,100,19.2,4,2,54,263,2,5,1,148,183,264,43,82,NaN,NaN,9-12,Maricopa,8646
Genesis Academy,"Phoenix, AZ",Public,85004,No,53,NaN,NaN,NaN,NaN,NaN,NaN,NaN,NaN,20,43.27,82.22,NaN,2,0,2,45,1,2,1,22,31,NaN,NaN,NaN,NaN,NaN,9-12,Maricopa,NaN
Girls Leadership Academy Of Arizona,"Phoenix, AZ",Public,85013,NaN,74,47,47,7,0,81,19,0,0,82.35,9.17,98.53,16,1,1,5,57,0,7,3,0,74,59,6,22,NaN,NaN,9-12,Maricopa,13261
Glenview College Preparatory High School,"Phoenix, AZ",Public,85301,Yes,523,19,26,38,16,27,37,27,8,98.75,0.84,100,20,3,8,25,457,1,18,11,227,296,381,73,153,NaN,NaN,9-12,Maricopa,9164
Gompers Private School,"Phoenix, AZ",Private,85017,NaN,NaN,NaN,NaN,NaN,NaN,NaN,NaN,NaN,NaN,NaN,NaN,NaN,NaN,0,0,2,5,3,0,0,NaN,NaN,NaN,NaN,NaN,2,5,6-12,Maricopa,NaN
Great Hearts Academies - Archway Veritas,"Phoenix, AZ",Public,85018,Yes,716,16,16,41,27,8,14,45,34,NaN,NaN,99.44,NaN,1,37,12,126,2,480,58,361,355,NaN,NaN,NaN,NaN,NaN,KG-12,Maricopa,39
Great Hearts Academies - North Phoenix Prep,"Phoenix, AZ",Public,85032,No,522,11,15,57,17,22,22,35,21,95.12,9.82,96.44,18.3,3,61,16,116,1,296,29,235,287,NaN,NaN,NaN,NaN,NaN,KG-6,Maricopa,79
Great Hearts Academies - Teleos Prep,"Phoenix, AZ",Public,85018,NaN,NaN,NaN,NaN,NaN,NaN,NaN,NaN,NaN,NaN,NaN,NaN,NaN,NaN,NaN,NaN,NaN,NaN,NaN,NaN,NaN,NaN,NaN,NaN,NaN,NaN,NaN,NaN,NaN,Maricopa,NaN
Great Hearts Academies - Veritas Prep,"Phoenix, AZ",Public,85018,No,802,16,20,51,14,21,23,31,25,98.48,0.69,98.48,18.1,3,44,20,178,5,498,53,374,427,NaN,NaN,NaN,NaN,NaN,6-12,Maricopa,5303
"Greenway, High School","Phoenix, AZ",Public,85053,Yes,1346,22,27,35,15,30,37,20,14,91.07,0.97,98.22,20,25,51,98,555,3,568,48,694,654,417,121,258,68.8,19.59,9-12,Maricopa,4254
Greenway Middle School,"Phoenix, AZ",Public,85032,Yes,418,64,17,16,3,79,12,6,3,NaN,NaN,100,NaN,10,2,20,353,0,26,8,218,201,263,46,125,25.17,16.65,7-8,Maricopa,456
Hi-star Center For Children,"Phoenix, AZ",Private,85019,NaN,NaN,NaN,NaN,NaN,NaN,NaN,NaN,NaN,NaN,NaN,NaN,NaN,NaN,NaN,NaN,NaN,NaN,NaN,NaN,NaN,NaN,NaN,NaN,NaN,NaN,NaN,NaN,NaN,Maricopa,NaN
Holy Cross Lutheran School,"Phoenix, AZ",Private,85023,NaN,NaN,NaN,NaN,NaN,NaN,NaN,NaN,NaN,NaN,NaN,NaN,NaN,NaN,0,0,0,4,3,0,0,NaN,NaN,NaN,NaN,NaN,1.1,6.4,KG-4-9,Maricopa,NaN
Hope High School,"Phoenix, AZ",Public,85043,Yes,141,83,12,5,0,82,18,0,0,27.59,19.82,77.84,31.8,5,2,28,97,0,8,1,79,62,NaN,NaN,NaN,NaN,NaN,9-12,Maricopa,NaN
Horizon Community Learning Center,"Phoenix, AZ",Public,85048,NaN,NaN,NaN,NaN,NaN,NaN,NaN,NaN,NaN,NaN,NaN,NaN,NaN,NaN,NaN,NaN,NaN,NaN,NaN,NaN,NaN,NaN,NaN,NaN,NaN,NaN,NaN,NaN,NaN,Maricopa,NaN
Humanities And Sciences High School - Phoenix,"Phoenix, AZ",Public,85040,NaN,NaN,NaN,NaN,NaN,NaN,NaN,NaN,NaN,NaN,NaN,NaN,NaN,NaN,NaN,NaN,NaN,NaN,NaN,NaN,NaN,NaN,NaN,NaN,NaN,NaN,NaN,NaN,NaN,Maricopa,331
Intelli-school- Metro Center,"Phoenix, AZ",Public,85029,Yes,54,73,20,7,0,62,31,6,0,13.79,29.08,75,35,2,3,2,28,0,18,0,28,25,NaN,NaN,NaN,NaN,NaN,9-12,Maricopa,NaN
Intelli-school- Paradise Valley,"Phoenix, AZ",Public,85022,Yes,62,54,23,23,0,54,46,0,0,9.38,24.43,89.47,33.6,0,0,0,30,0,30,2,27,35,NaN,NaN,NaN,NaN,NaN,9-12,Maricopa,NaN
International Commerce High School - Phoenix,"Phoenix, AZ",Public,85282,No,200,69,22,8,0,82,15,2,0,43.33,21.4,75.23,34.8,5,0,23,153,0,12,7,99,101,NaN,NaN,NaN,NaN,NaN,9-12,Maricopa,NaN
Jail maricopa County Sheriffs Office,"Phoenix, AZ",Public,85003,NaN,NaN,NaN,NaN,NaN,NaN,NaN,NaN,NaN,NaN,NaN,NaN,NaN,NaN,NaN,NaN,NaN,NaN,NaN,NaN,NaN,NaN,NaN,NaN,NaN,NaN,NaN,NaN,NaN,Maricopa,NaN
Kaizen Education Foundation Dba Maya High School,"Phoenix, AZ",Public,85051,Yes,393,81,14,4,1,83,17,0,0,13.61,20.92,76.62,35,11,16,58,275,0,24,8,194,198,317,19,183,NaN,NaN,9-12,Maricopa,NaN
Kaizen Education Foundation Dba Quest High School,"Phoenix, AZ",Public,85042,NaN,87,90,5,5,0,86,9,5,0,11.9,29.56,74.39,35,4,0,4,69,0,10,1,44,44,58,3,40,NaN,NaN,9-12,Maricopa,NaN
Kaizen Education Foundation Dba Summit High School,"Phoenix, AZ",Public,85006,Yes,192,81,13,4,2,76,20,2,2,16.8,24.08,81.52,33.3,7,0,22,150,0,7,5,105,86,118,17,81,NaN,NaN,9-12,Maricopa,NaN
Keystone Montessori Charter School,"Phoenix, AZ",Public,85048,No,177,20,18,46,16,26,29,27,18,NaN,NaN,100,NaN,0,12,9,57,1,87,13,93,86,NaN,NaN,NaN,NaN,NaN,1-9,Maricopa,NaN
Learning Institute The ,"Phoenix, AZ",Public,85014,No,102,76,18,0,6,94,0,6,0,25.81,3.62,56.64,35,10,0,3,81,0,7,1,55,47,NaN,NaN,NaN,NaN,NaN,7-12,Maricopa,NaN
Life Skills Center Of Arizona,"Phoenix, AZ",Public,85029,NaN,NaN,NaN,NaN,NaN,NaN,NaN,NaN,NaN,NaN,NaN,NaN,NaN,NaN,NaN,NaN,NaN,NaN,NaN,NaN,NaN,NaN,NaN,NaN,NaN,NaN,NaN,NaN,NaN,Maricopa,NaN
Madison Highland Prep,"Phoenix, AZ",Public,85014,No,456,25,32,33,10,13,30,33,24,100,0,100,20,8,9,19,240,2,157,21,254,202,127,36,62,NaN,NaN,9-12,Maricopa,807
Maryvale High School,"Phoenix, AZ",Public,85033,Yes,2795,68,19,11,1,69,23,7,1,72.71,4.45,95.92,15,23,13,122,2549,3,63,22,1484,1311,2236,223,691,138.2,20.22,9-12,Maricopa,11592
Metro Tech High School,"Phoenix, AZ",Public,85015,Yes,1804,32,34,28,5,40,36,18,6,98.69,0.28,99.2,20,4,13,23,1735,0,29,0,829,975,1425,198,334,100.8,17.9,9-12,Maricopa,2564
Metrocenter Academy,"Phoenix, AZ",Public,85051,NaN,NaN,NaN,NaN,NaN,NaN,NaN,NaN,NaN,NaN,NaN,NaN,NaN,NaN,NaN,NaN,NaN,NaN,NaN,NaN,NaN,NaN,NaN,NaN,NaN,NaN,NaN,NaN,NaN,Maricopa,NaN
Metropolitan Arts Institute,"Phoenix, AZ",Public,85007,No,250,25,21,49,6,50,28,21,2,94.59,0,100,14,4,3,19,109,1,99,15,49,201,NaN,NaN,NaN,NaN,NaN,7-12,Maricopa,9815
Midtown High School,"Phoenix, AZ",Public,85035,NaN,NaN,NaN,NaN,NaN,NaN,NaN,NaN,NaN,NaN,NaN,23.53,NaN,NaN,0,0,0,7,0,0,0,2,5,NaN,NaN,NaN,NaN,NaN,9-12,Maricopa,NaN
Moon Valley High School,"Phoenix, AZ",Public,85029,Yes,1488,34,31,28,8,35,28,25,12,90.83,1.82,99.06,20,31,53,123,785,6,435,57,766,724,596,134,337,75.8,19.66,9-12,Maricopa,4202
Mosaica Online High School Of Arizona,"Phoenix, AZ",Public,85016,NaN,NaN,NaN,NaN,NaN,NaN,NaN,NaN,NaN,NaN,NaN,NaN,NaN,NaN,NaN,NaN,NaN,NaN,NaN,NaN,NaN,NaN,NaN,NaN,NaN,NaN,NaN,NaN,NaN,Maricopa,NaN
Mountain Pointe High School,"Phoenix, AZ",Public,85044,NaN,1713,28,27,35,10,37,35,21,7,88.47,3.18,97.78,20,NaN,NaN,NaN,NaN,NaN,NaN,NaN,NaN,NaN,NaN,NaN,NaN,NaN,NaN,9-12,Maricopa,10513
Mountain Sky Middle School,"Phoenix, AZ",Public,85023,No,713,47,21,24,8,55,17,15,13,NaN,NaN,100,NaN,18,9,49,298,0,304,35,363,350,363,28,154,40,17.82,7-8,Maricopa,322
Mountain Trail Middle School,"Phoenix, AZ",Public,85024,Yes,680,27,21,34,19,36,20,20,25,NaN,NaN,100,NaN,5,18,20,186,5,395,51,365,315,129,34,66,34.67,19.61,7-8,Maricopa,266
New World Educational Center,"Phoenix, AZ",Public,85014,No,173,44,23,26,7,56,24,15,4,NaN,NaN,100,NaN,4,0,10,154,0,6,2,89,87,73,10,51,NaN,NaN,KG-12,Maricopa,307
Nfl Yet College Prep Academy,"Phoenix, AZ",Public,85040,No,313,48,25,23,3,73,17,7,3,85.92,3.48,100,19.6,1,1,10,292,0,9,0,171,142,262,31,94,NaN,NaN,7-12,Maricopa,13261
North Canyon High School,"Phoenix, AZ",Public,85024,Yes,1842,44,24,25,6,49,33,12,6,88,2,97.04,11.6,32,30,147,1142,5,410,76,937,905,810,202,428,88.8,20.74,8-12,Maricopa,9877
North High School,"Phoenix, AZ",Public,85014,No,2135,58,24,14,3,64,24,10,2,78.46,6.51,96.7,15,56,22,169,1757,5,90,36,1077,1058,1729,128,578,112,19.06,9-12,Maricopa,8767
North Pointe Preparatory,"Phoenix, AZ",Public,85051,Yes,435,41,23,31,5,63,19,14,4,90.22,5.13,96.65,0,7,18,25,245,0,114,23,219,213,NaN,NaN,NaN,NaN,NaN,7-12,Maricopa,6686
Northwest Christian School,"Phoenix, AZ",Private,85053,NaN,NaN,NaN,NaN,NaN,NaN,NaN,NaN,NaN,NaN,NaN,NaN,NaN,NaN,NaN,NaN,NaN,NaN,NaN,NaN,NaN,NaN,NaN,NaN,NaN,NaN,NaN,NaN,PK-12,Maricopa,NaN
Nueva Vista School / Arizona State Hospital,"Phoenix, AZ",Public,85008,NaN,NaN,NaN,NaN,NaN,NaN,NaN,NaN,NaN,NaN,NaN,NaN,NaN,NaN,NaN,NaN,NaN,NaN,NaN,NaN,NaN,NaN,NaN,NaN,NaN,NaN,NaN,NaN,KG-12,Maricopa,NaN
"Ombudsman, - Charter East","Phoenix, AZ",Public,85018,No,85,89,11,0,0,89,11,0,0,18.87,20.34,65.05,35,8,0,6,63,0,7,1,37,48,NaN,NaN,NaN,NaN,NaN,9-12,Maricopa,NaN
Ombudsman - Charter East lI,"Phoenix, AZ",Public,85018,No,87,62,23,8,8,69,15,15,0,16,29.14,65.67,NaN,9,0,6,63,0,9,0,50,37,NaN,NaN,NaN,NaN,NaN,9-12,Maricopa,NaN
Ombudsman - Charter Metro,"Phoenix, AZ",Public,85301,No,232,84,11,3,3,90,8,2,0,13.33,30.67,77.45,33,8,1,38,144,6,35,0,117,115,NaN,NaN,NaN,NaN,NaN,9-12,Maricopa,NaN
Ombudsman - Charter Northeast,"Phoenix, AZ",Public,85281,No,98,76,20,0,4,68,28,4,0,21.15,30.15,75.29,35,17,0,13,50,0,17,1,50,48,NaN,NaN,NaN,NaN,NaN,9-12,Maricopa,NaN
Osborn Middle School,"Phoenix, AZ",Public,85013,Yes,498,59,18,20,3,70,14,13,4,NaN,NaN,100,NaN,29,8,80,330,2,42,13,264,240,378,25,175,32.5,15.51,7-8,Maricopa,290
Palo Verde Middle School,"Phoenix, AZ",Public,85051,No,871,60,20,18,3,77,15,6,2,NaN,NaN,100,NaN,20,52,115,563,0,94,26,467,403,696,0,337,53,16.42,7-8,Maricopa,456
Pan-american Charter School,"Phoenix, AZ",Public,85017,NaN,1123,49,25,23,3,61,25,11,3,92,23.54,96.78,13.9,6,10,23,1064,0,15,5,600,523,1010,78,283,NaN,NaN,KG-12,Maricopa,359